[{"id":"-7901685987304740805","display":"20th Century Flicks 1","shortDisplay":"20thcflicks","image":{"url":"https://bristol.cyclos.org/bristolpoundsandbox03/api/images/profile/DOTHhCRoYk0AzqwcB4F4CAnACwbICxqNR6WORY0hPJVmEY6Zu8XKyrcpOFnzJt8J_500x500.png"},"address":{"addressLine1":"18 Christmas Steps","addressLine2":"Bristol","zip":"BS1 5BS","location":{"latitude":51.456159,"longitude":-2.596819}}},{"id":"-8045801175380596677","display":"360 Pole Dancing","shortDisplay":"360pole","image":{"url":"https://bristol.cyclos.org/bristolpoundsandbox03/api/images/profile/DXHA88fLJegNgj7rgWjUoikhhg5Uuj3k95hS64JHbuFu3p2APUrDNhjNWAMgwDRM_960x640.png"},"address":{"addressLine1":"BV Studios","addressLine2":"37 Philip Street","zip":"BS3 4EA","location":{"latitude":51.442776,"longitude":-2.592608}}},{"id":"-7613455611153029061","display":"4D Landscape Design","shortDisplay":"4dld","image":{"url":"https://bristol.cyclos.org/bristolpoundsandbox03/api/images/profile/tqyZzye2DBJI1jZUqGsP6a43J6DALXkWEnZ2Q3hOFQ281z9QNkSUH0STA5VcphLl_350x350.png"},"address":{"addressLine1":"Urban Design Studio C","addressLine2":"14 Backfields Lane","zip":"BS2 8QW","location":{"latitude":51.462055,"longitude":-2.588432}}},{"id":"-7757570799228884933","display":"5 Elements Fitness","shortDisplay":"5elements","image":{"url":"https://bristol.cyclos.org/bristolpoundsandbox03/api/images/profile/bK9SJutOvhsS5cbG2NHONgNiGPkyTuIVCYzvEvehtLBmZ0X2kD0jxyMogseiMNq0_141x107.png"},"address":{"zip":"BS4 5BZ","location":{"latitude":51.43123,"longitude":-2.549902}}},{"id":"-7469340423077173189","display":"Aardvark Arts & Crafts Ltd","shortDisplay":"aardvark","address":{"addressLine1":"Units 11-12","addressLine2":"The Corn Exchange","zip":"BS1 1JQ","location":{"latitude":51.454497,"longitude":-2.59412}}},{"id":"-7325225235001317317","display":"A Bar Of Chocolate Ltd","shortDisplay":"barchoc","image":{"url":"https://bristol.cyclos.org/bristolpoundsandbox03/api/images/profile/VHTdLQ3L2m9Jg9plWuekY4ffS6YYKq4hbOui0Mf4bsWTALO91ws1vPfZg8zPtV0b_350x72.png"},"address":{"addressLine1":"Montvale Lodge","addressLine2":"Paulton Road","zip":"BS39 6EG","location":{"latitude":51.312058,"longitude":-2.519322}}},{"id":"-7036994858849605573","display":"Absolutely Cakes","shortDisplay":"acakes","address":{"addressLine1":"230 Henleaze Road","addressLine2":"Henleaze","zip":"BS9 4NG","location":{"latitude":51.489554,"longitude":-2.607815}}},{"id":"-7181110046925461445","display":"ADL Building Plastics","shortDisplay":"adlbp","address":{"addressLine1":"Unit 10","addressLine2":"Russell Town Avenue Industrial Centre","zip":"BS5 9LT","location":{"latitude":51.458393,"longitude":-2.561899}}},{"id":"-8910492303835731909","display":"Admin One","shortDisplay":"admin1"},{"id":"7086293572584269883","display":"Admin Unlimited","shortDisplay":"unlimited","address":{"zip":"BS3 5AJ","location":{"latitude":51.437151,"longitude":-2.586083}}},{"id":"6942178384508414011","display":"Aeob House People","shortDisplay":"aeobhousepeople","address":{"addressLine1":"3 Windsor Terrace","addressLine2":"Clifton","zip":"BS8 4LW","location":{"latitude":51.451392,"longitude":-2.624574}}},{"id":"7374523948735981627","display":"Agnes Spencer's Amazing Jamaican Cuisine","shortDisplay":"agnesspencers","address":{"addressLine1":"Tobbacco Factory Market","zip":"BS3","location":{"latitude":51.438946,"longitude":-2.600472}}},{"id":"7230408760660125755","display":"Agora","shortDisplay":"agora","address":{"addressLine1":"50 Guest Avenue","addressLine2":"Emersones Green","zip":"BS16 7GA","location":{"latitude":51.49276,"longitude":-2.481454}}},{"id":"7518639136811837499","display":"Ahh Toots","shortDisplay":"toots","address":{"addressLine1":"4-8 Glass Arcade","addressLine2":"St Nicholas Market","zip":"BS1 1LJ","location":{"latitude":51.454199,"longitude":-2.593181}}},{"id":"7662754324887693371","display":"Ah-Ma's Dumplings","shortDisplay":"ahmasdumplings","address":{"zip":"BS7 8RJ","location":{"latitude":51.484067,"longitude":-2.588326}}},{"id":"7950984701039405115","display":"Alec French Partnership","shortDisplay":"alecfrench","address":{"addressLine1":"27 Trenchard Street","addressLine2":"Bristol","zip":"BS1 5AN","location":{"latitude":51.455727,"longitude":-2.597723}}},{"id":"7806869512963549243","display":"Alexander Technique for Life (ATforLife)","shortDisplay":"at4life","address":{"addressLine1":"1 The Yard","addressLine2":"St Werburghs","zip":"BS2 9YR","location":{"latitude":51.474246,"longitude":-2.576358}}},{"id":"8239215077191116859","display":"Alison Crowther Associates Ltd/MadeToLast","shortDisplay":"acaltd","address":{"addressLine1":"15 Milverton Gardens","zip":"BS6 5JQ","location":{"latitude":51.470113,"longitude":-2.579033}}},{"id":"8095099889115260987","display":"Amitabha Buddhist Centre","shortDisplay":"amitabha","address":{"addressLine1":"Old Vicarage","addressLine2":"Gloucester Road","zip":"BS7 8NX","location":{"latitude":51.47742,"longitude":-2.589678}}},{"id":"8527445453342828603","display":"AMP Express Transport","shortDisplay":"ampuk","address":{"addressLine1":"86 Pennywell Road","addressLine2":"Old Market","zip":"BS5 0TG","location":{"latitude":51.461437,"longitude":-2.577009}}},{"id":"8383330265266972731","display":"Andy Gardner Web Design","shortDisplay":"andygardner","address":{"addressLine1":"85 Highbury Road","addressLine2":"Bedminster","zip":"BS3 5NS","location":{"latitude":51.432858,"longitude":-2.60345}}},{"id":"8815675829494540347","display":"Antlers Gallery","shortDisplay":"antlers","address":{"addressLine1":"11 Christmas Steps","addressLine2":"Bristol","zip":"BS1 5BS","location":{"latitude":51.456117,"longitude":-2.596832}}},{"id":"8671560641418684475","display":"Ape About Coffee","shortDisplay":"apeaboutcoffee","address":{"addressLine1":"29 Maxse Road","addressLine2":"Knowle","zip":"BS4 2JG","location":{"latitude":51.436616,"longitude":-2.567292}}},{"id":"9103906205646252091","display":"Apple Colour Ltd","shortDisplay":"applecolour","address":{"addressLine1":"Silverthorne Lane","addressLine2":"St Philips","zip":"BS2 0QD","location":{"latitude":51.450662,"longitude":-2.571117}}},{"id":"8959791017570396219","display":"Arbor Ales","shortDisplay":"arborales","address":{"addressLine1":"Arbor Ales Ltd","addressLine2":"Unit 4","zip":"BS5 0EB","location":{"latitude":51.459474,"longitude":-2.56841}}},{"id":"4636335375294720059","display":"Arcadian Furniture","shortDisplay":"afurn","address":{"addressLine1":"Lower Fields Farm","addressLine2":"Hinton","zip":"SN14 8HJ","location":{"latitude":51.488887,"longitude":-2.405646}}},{"id":"4780450563370575931","display":"Arc Bar, Cafe and Museum","shortDisplay":"arcbar","address":{"addressLine1":"27 Broad Street","addressLine2":"Bristol","zip":"BS1 2HG","location":{"latitude":51.455689,"longitude":-2.59477}}},{"id":"5068680939522287675","display":"Arkbound","shortDisplay":"arkbound","address":{"zip":"BS2 8NB","location":{"latitude":51.462004,"longitude":-2.59488}}},{"id":"4924565751446431803","display":"Armada House","shortDisplay":"armadahouse","address":{"addressLine1":"Armada House","addressLine2":"Telephone Avenue","zip":"BS1 4BQ","location":{"latitude":51.453047,"longitude":-2.59538}}},{"id":"5356911315673999419","display":"Arnolfini","shortDisplay":"finibox","address":{"addressLine1":"16 Narrow Quay","addressLine2":"Bristol","zip":"BS1 4QA","location":{"latitude":51.449039,"longitude":-2.597224}}},{"id":"5212796127598143547","display":"Arnolfini Bookshop","shortDisplay":"finibooks","address":{"addressLine1":"16 Narrow Quay","zip":"BS1 4QA","location":{"latitude":51.449039,"longitude":-2.597224}}},{"id":"5645141691825711163","display":"Arnolfini Cafe Bar","shortDisplay":"finibar","address":{"addressLine1":"16 Narrow Quay","addressLine2":"Bristol","zip":"BS1 4QA","location":{"latitude":51.449039,"longitude":-2.597224}}},{"id":"5933372067977422907","display":"Artemis Designer Jewellery & Gifts","shortDisplay":"artemis","address":{"addressLine1":"214 Gloucester Road","addressLine2":"Bishopston","zip":"BS7 8NU","location":{"latitude":51.479084,"longitude":-2.589708}}},{"id":"5501026503749855291","display":"Art & Science Limited","shortDisplay":"artscience","address":{"addressLine1":"124 Gloucester Road","addressLine2":"Bishopston","zip":"BS7 8NL","location":{"latitude":51.476208,"longitude":-2.5907}}},{"id":"5789256879901567035","display":"Askew Architects","shortDisplay":"askew","address":{"addressLine1":"Studio D","addressLine2":"14 Backfields Lane","zip":"BS2 8QW","location":{"latitude":51.461944,"longitude":-2.589053}}},{"id":"6221602444129134651","display":"At Home with IT","shortDisplay":"Ahwit","address":{"addressLine1":"Elena Hensinger","addressLine2":"Basecamp","zip":"BS8 1UB","location":{"latitude":51.455848,"longitude":-2.603075}}},{"id":"6798063196432558139","display":"Avanti Hygiene","shortDisplay":"avanti","address":{"addressLine1":"179 South Liberty Lane","addressLine2":"Ashton","zip":"BS3 2TN","location":{"latitude":51.42913,"longitude":-2.627013}}},{"id":"2474607554156881979","display":"Bagel Boy (Gloucester Road)","shortDisplay":"bagelboy","address":{"addressLine1":"213 Gloucester Road","addressLine2":"Bristol","zip":"BS7 8NN","location":{"latitude":51.475925,"longitude":-2.590519}}},{"id":"2330492366081026107","display":"Bailey Balloons","shortDisplay":"bailey","address":{"addressLine1":"44 Ham Green","addressLine2":"Bristol","zip":"BS20 0HA","location":{"latitude":51.475924,"longitude":-2.680625}}},{"id":"2762837930308593723","display":"Baristas","shortDisplay":"baristas","address":{"addressLine1":"29 Victoria Street","addressLine2":"Bristol","zip":"BS1 6AA","location":{"latitude":51.45267,"longitude":-2.589505}}},{"id":"2618722742232737851","display":"Bascom-bms","shortDisplay":"bascom","address":{"addressLine1":"Waterside","addressLine2":"Atlas Street","zip":"BS2 0HH","location":{"latitude":51.449818,"longitude":-2.568912}}},{"id":"3051068306460305467","display":"BBS Plumbing and Heating Supplies Ltd","shortDisplay":"bbsltd","address":{"addressLine1":"Unit 3","addressLine2":"Barton Hill Trading Estate","zip":"BS5 9RD","location":{"latitude":51.451653,"longitude":-2.562889}}},{"id":"2906953118384449595","display":"Bear Fruit","shortDisplay":"bearfruit","address":{"addressLine1":"St. James Roundabout aka Bearpit","addressLine2":"Bristol","zip":"BS1 3LE","location":{"latitude":51.459799,"longitude":-2.586416}}},{"id":"3339298682612017211","display":"Bearpit Social","shortDisplay":"bearpitsocial","address":{"addressLine1":"St. James Barton Underpass","addressLine2":"Container 1","zip":"BS1 3LT","location":{"latitude":51.458878,"longitude":-2.590795}}},{"id":"3195183494536161339","display":"Beast Clothing (St. Nicks Market)","shortDisplay":"beast","address":{"addressLine1":"29-30 The Corn Exchange","addressLine2":"St Nicholas Market","zip":"BS1 1HQ","location":{"latitude":51.45433,"longitude":-2.593989}}},{"id":"3627529058763728955","display":"Beatroot Cafe","shortDisplay":"beatroot","address":{"addressLine1":"20-21 Lower Park Row","addressLine2":"Bristol","zip":"BS1 5BN","location":{"latitude":51.455909,"longitude":-2.598168}}},{"id":"3483413870687873083","display":"Beautiful Things in Foreign Lands","shortDisplay":"btifl"},{"id":"3915759434915440699","display":"Beaver Cleaning Services Ltd","shortDisplay":"beavercleaning","address":{"addressLine1":"27 Tetbury Gardens","addressLine2":"Bristol","zip":"BS48 2TL","location":{"latitude":51.429457,"longitude":-2.748123}}},{"id":"3771644246839584827","display":"Becky Watkins","shortDisplay":"wtkby","address":{"addressLine1":"3 Redcliffe Parade East","addressLine2":"Redcliffe","zip":"BS1 6SW","location":{"latitude":51.448196,"longitude":-2.591503}}},{"id":"4203989811067152443","display":"Bell's Diner and Bar Rooms","shortDisplay":"bells","address":{"addressLine1":"Bell's Diner and Bar Rooms","addressLine2":"1-3 York Road","zip":"BS6 5QB","location":{"latitude":51.466313,"longitude":-2.588087}}},{"id":"4059874622991296571","display":"Berkeley Barbers","shortDisplay":"kiris","address":{"addressLine1":"39 Queens Road","addressLine2":"Bristol","zip":"BS8 1QE","location":{"latitude":51.455918,"longitude":-2.606107}}},{"id":"4492220187218864187","display":"Bertha's Pizza Ltd","shortDisplay":"berthas","address":{"zip":"BS5 0LU","location":{"latitude":51.465198,"longitude":-2.567383}}},{"id":"4348104999143008315","display":"Best Sweep Chimney Sweeps","shortDisplay":"bestsweep","address":{"addressLine1":"91 Station Road","addressLine2":"Nailsea","zip":"BS48 1TD","location":{"latitude":51.431622,"longitude":-2.754663}}},{"id":"168764544943188027","display":"Beware of the Leopard","shortDisplay":"leopard","address":{"addressLine1":"77","addressLine2":"The Covered Market","zip":"BS1 1LJ","location":{"latitude":51.454199,"longitude":-2.593181}}},{"id":"24649356867332155","display":"BG - Buzz","shortDisplay":"buzz","address":{"addressLine1":"6 Gainsborough Square","addressLine2":"Lockleaze","zip":"BS7 9XA","location":{"latitude":51.490964,"longitude":-2.563483}}},{"id":"456994921094899771","display":"BG - Central","shortDisplay":"central","address":{"addressLine1":"Room 103, Corn Exchange","addressLine2":"Corn Street","zip":"BS1 1JQ","location":{"latitude":51.454335,"longitude":-2.593402}}},{"id":"312879733019043899","display":"BG - Chilli Peppers","shortDisplay":"chillipeppers","address":{"addressLine1":"50 Guest Avenue","addressLine2":"Emerson's Green","zip":"BS16 7DS","location":{"latitude":51.49276,"longitude":-2.481454}}},{"id":"745225297246611515","display":"BG - Feaston","shortDisplay":"feaston"},{"id":"601110109170755643","display":"BG - Hamilton House","shortDisplay":"hamiltonhousebg","address":{"addressLine1":"80 Stokes Croft","addressLine2":"Bristol","zip":"BS1 3QY","location":{"latitude":51.462862,"longitude":-2.589353}}},{"id":"1033455673398323259","display":"BG - Love Food","shortDisplay":"lovefood"},{"id":"889340485322467387","display":"Bibi glass and print","shortDisplay":"bibiglass","address":{"addressLine1":"Hillside","addressLine2":"Bristol","zip":"BS35 5RU","location":{"latitude":51.580199,"longitude":-2.572971}}},{"id":"1321686049550035003","display":"Big Fish Little Fish","shortDisplay":"bflf","address":{"zip":"Np190fu","location":{"latitude":51.583269,"longitude":-2.970301}}},{"id":"1177570861474179131","display":"Big Green Week CIC","shortDisplay":"bbgw","address":{"addressLine1":"18 Great George Street","addressLine2":"Bristol","zip":"BS1 5RH","location":{"latitude":51.453718,"longitude":-2.604144}}},{"id":"1609916425701746747","display":"Bird In Hand","shortDisplay":"bird","address":{"addressLine1":"17 Weston Road","addressLine2":"Long Ashton","zip":"BS41 9LA","location":{"latitude":51.429269,"longitude":-2.663487}}},{"id":"1465801237625890875","display":"Bishopston Supper Club","shortDisplay":"bishopstonsc","address":{"zip":"BS7","location":{"latitude":51.481447,"longitude":-2.579746}}},{"id":"1898146801853458491","display":"Blackboy Hill Cycles","shortDisplay":"black180","address":{"addressLine1":"180 Whiteladies Road","addressLine2":"Clifton","zip":"BS8 2XU","location":{"latitude":51.470367,"longitude":-2.615594}}},{"id":"1754031613777602619","display":"Blankety Quiz","shortDisplay":"blankety","address":{"zip":"BS3","location":{"latitude":51.438946,"longitude":-2.600472}}},{"id":"2186377178005170235","display":"Blaze","shortDisplay":"blaze","address":{"addressLine1":"84 Colston Street","addressLine2":"Bristol","zip":"BS1 5BB","location":{"latitude":51.456913,"longitude":-2.597214}}},{"id":"2042261989929314363","display":"Blue Sky Cafe","shortDisplay":"blueskycafe","address":{"addressLine1":"9 The Square","addressLine2":"Staple Hill","zip":"BS16 5LR","location":{"latitude":51.481357,"longitude":-2.504378}}},{"id":"-2137078464270505926","display":"BlueTree Website Design","shortDisplay":"bluetree","address":{"addressLine1":"16a Beach Road West","addressLine2":"Portishead","zip":"BS20 7HR","location":{"latitude":51.487668,"longitude":-2.771976}}},{"id":"-2281193652346361798","display":"Bocabar","shortDisplay":"bocabar","address":{"addressLine1":"Paintworks","addressLine2":"Bath Road","zip":"BS4 3EH","location":{"latitude":51.436856,"longitude":-2.556084}}},{"id":"-1848848088118794182","display":"Bon Appetit","shortDisplay":"bonappetit","address":{"addressLine1":"Unit 22","addressLine2":"Lawrence Hill Industrial Park","zip":"BS5 0EB","location":{"latitude":51.459474,"longitude":-2.56841}}},{"id":"-1992963276194650054","display":"Boo Coo","shortDisplay":"boocoo","address":{"addressLine1":"9 Miles Close","addressLine2":"Ham Green","zip":"BS20 0LH","location":{"latitude":51.475705,"longitude":-2.676211}}},{"id":"-1560617711967082438","display":"Bookbarn International","shortDisplay":"bookbarnint","address":{"addressLine1":"Unit 1 Hallatrow Business Park","addressLine2":"White Cross","zip":"BS39 6EX","location":{"latitude":51.308912,"longitude":-2.531136}}},{"id":"-1704732900042938310","display":"Bordeaux Quay Ltd","shortDisplay":"bqbristol","address":{"addressLine1":"V Shed","addressLine2":"Canons Way","zip":"BS1 5UH","location":{"latitude":51.44915,"longitude":-2.602437}}},{"id":"-1272387335815370694","display":"Born","shortDisplay":"born","address":{"addressLine1":"64 Gloucester Road","addressLine2":"Bishopston","zip":"BS7 8BH","location":{"latitude":51.473556,"longitude":-2.591436}}},{"id":"-2281193652346361794","display":"BP CIC mobile access point","shortDisplay":"bpcicaccess"},{"id":"-1416502523891226566","display":"Bramley Pope Opticians","shortDisplay":"opticians","address":{"addressLine1":"35 St Stephens Street","addressLine2":"Bristol","zip":"BS1 1JX","location":{"latitude":51.453667,"longitude":-2.594607}}},{"id":"-984156959663658950","display":"Bright Star Records","shortDisplay":"brightstarrecords","address":{"addressLine1":"Harbourside","addressLine2":"1 Canon's Road","zip":"BS1 5TX","location":{"latitude":51.450887,"longitude":-2.599178}}},{"id":"-1128272147739514822","display":"Bristec Hospitality & Retail Systems","shortDisplay":"bristec","address":{"addressLine1":"Unit 3, Ram Hill Business Park","addressLine2":"Ram Hill","zip":"BS36 2TX","location":{"latitude":51.520605,"longitude":-2.466907}}},{"id":"-695926583511947206","display":"Bristol 1st","shortDisplay":"bristol1st","address":{"addressLine1":"18 Great George Street","addressLine2":"Bristol","zip":"BS1 5RH","location":{"latitude":51.453718,"longitude":-2.604144}}},{"id":"-840041771587803078","display":"Bristol 2015 Limited","shortDisplay":"bristol2015","address":{"addressLine1":"Bristol 2015 Ltd","addressLine2":"Units 5-6","zip":"BS1 5TX","location":{"latitude":51.450887,"longitude":-2.599178}}},{"id":"-5739958166166902726","display":"Bristol24/7","shortDisplay":"bristol247","address":{"addressLine1":"Unit 2.4, Paintworks","addressLine2":"Arnos Vale","zip":"BS4 3EH","location":{"latitude":51.442815,"longitude":-2.56794}}},{"id":"-407696207360235462","display":"Bristol and Bath Locksmiths","shortDisplay":"BABL","address":{"addressLine1":"Vera Road","addressLine2":"Bristol","zip":"BS16 3EL","location":{"latitude":51.472395,"longitude":-2.535884}}},{"id":"-551811395436091334","display":"Bristol Beer Factory","shortDisplay":"bristolbeer","address":{"addressLine1":"The Old Brewery","addressLine2":"Durnford St","zip":"BS3 2AW","location":{"latitude":51.441812,"longitude":-2.616933}}},{"id":"-119465831208523718","display":"Bristol Business Centre","shortDisplay":"bbce","address":{"addressLine1":"179 Whiteladies Road","addressLine2":"Clifton","zip":"BS8 2AG","location":{"latitude":51.469162,"longitude":-2.613868}}},{"id":"-263581019284379590","display":"Bristol Cathedral","shortDisplay":"bristolcathedral","address":{"addressLine1":"Bristol Cathedral","addressLine2":"College Green","zip":"BS1 5TJ","location":{"latitude":51.451525,"longitude":-2.600656}}},{"id":"-4442921473484199878","display":"Bristol Chiropractic Clinic","shortDisplay":"bristolchiro","address":{"addressLine1":"The Exercise Club","addressLine2":"213 Whiteladies Rd","zip":"BS8 2XS","location":{"latitude":51.470039,"longitude":-2.614533}}},{"id":"-1704732900042938306","display":"Bristol City Council","shortDisplay":"bcc1","address":{"zip":"BS1 122","location":{"latitude":51.453751,"longitude":-2.591552}}},{"id":"-4587036661560055750","display":"Bristol City Yoga","shortDisplay":"cityyoga","address":{"addressLine1":"16 Backfields Lane","addressLine2":"Bristol","zip":"BS2 8QW","location":{"latitude":51.462394,"longitude":-2.589004}}},{"id":"-4154691097332488134","display":"Bristol Community Ferry Boats","shortDisplay":"bferry","address":{"addressLine1":"44 The Grove","addressLine2":"Bristol","zip":"BS1 4RB","location":{"latitude":51.449442,"longitude":-2.595638}}},{"id":"-4298806285408344006","display":"Bristol Community Magazines Ltd","shortDisplay":"bcmagazines","address":{"addressLine1":"8 Sandyleaze","addressLine2":"Westbury - On- Trym","zip":"BS9 3PY","location":{"latitude":51.493943,"longitude":-2.632308}}},{"id":"-3866460721180776390","display":"Bristol Credit Union","shortDisplay":"bristolcu","image":{"url":"https://bristol.cyclos.org/bristolpoundsandbox03/api/images/profile/a1RjDMZCg7qW1SzLnGMIVrj4a0VT0OtElTqUBXh30CU4VwWwQzI1WrMQG1J20ImH_116x76.png"},"address":{"addressLine1":"112/114 Cheltenham Road","addressLine2":"Bristol","zip":"BS6 5RW","location":{"latitude":51.464452,"longitude":-2.589644}}},{"id":"-1848848088118794178","display":"Bristol Credit Union - Access Point","shortDisplay":"access4bcu"},{"id":"-4010575909256632262","display":"Bristol Dropouts","shortDisplay":"dropouts","address":{"addressLine1":"25 Stokes Croft","addressLine2":"Bristol","zip":"BS1 3PY","location":{"latitude":51.461329,"longitude":-2.590742}}},{"id":"-3578230345029064646","display":"Bristol Energy Co-operative","shortDisplay":"becoop","address":{"addressLine1":"Bristol Energy Cooperative","addressLine2":"77 Stokes Croft","zip":"BS1 3RD","location":{"latitude":51.46296,"longitude":-2.590125}}},{"id":"-3722345533104920518","display":"Bristol Energy Technology","shortDisplay":"bristolenergy","address":{"addressLine1":"1 Temple Quay","addressLine2":"Temple Back East","zip":"BS1 6DZ","location":{"latitude":51.452138,"longitude":-2.583777}}},{"id":"-3289999968877352902","display":"Bristol Green Hosting","shortDisplay":"grahamwoodruff","address":{"addressLine1":"Unit 5.3","addressLine2":"Paintworks","zip":"BS4 3EH","location":{"latitude":51.437902,"longitude":-2.41036}}},{"id":"-3434115156953208774","display":"Bristol Green Party","shortDisplay":"greenparty","address":{"addressLine1":"47 Abbey Rd","addressLine2":"Westbury-on-Trym","zip":"BS9 3QN","location":{"latitude":51.489029,"longitude":-2.626297}}},{"id":"-3001769592725641158","display":"Bristol Green Publishing","shortDisplay":"bgpl","address":{"addressLine1":"86 Colston Street","addressLine2":"Bristol","zip":"BS1 5BB","location":{"latitude":51.456968,"longitude":-2.597262}}},{"id":"-3145884780801497030","display":"Bristol Guild of Applied Art Ltd","shortDisplay":"bristolguild"},{"id":"-2713539216573929414","display":"Bristol Health Hub CIC","shortDisplay":"healthhub"},{"id":"-2857654404649785286","display":"Bristol Insight","shortDisplay":"citysights","address":{"addressLine1":"Broad Quay (Stop 1)","zip":"BS1 4DA","location":{"latitude":51.453029,"longitude":-2.596879}}},{"id":"-2425308840422217670","display":"Bristol Leaflet Delivery","shortDisplay":"bristolleaflets","address":{"addressLine1":"15 Willada Close","addressLine2":"Bedminster","zip":"BS3 5NG","location":{"latitude":51.432812,"longitude":-2.607885}}},{"id":"-2569424028498073542","display":"Bristol Massage Therapy","shortDisplay":"bristolmassage","address":{"addressLine1":"77a Queen’s Road","addressLine2":"Clifton","zip":"BS8 1QP","location":{"latitude":51.457712,"longitude":-2.608149}}},{"id":"-6748764482697893830","display":"Bristol Movement Space","shortDisplay":"movement","address":{"addressLine1":"301 Church Road","addressLine2":"St George","zip":"BS5 8AA","location":{"latitude":51.459814,"longitude":-2.549828}}},{"id":"-6892879670773749702","display":"Bristol News","shortDisplay":"bristolnews","address":{"addressLine1":"43 Jamaica Street","addressLine2":"Bristol","zip":"BS2 8JP","location":{"latitude":51.462709,"longitude":-2.59024}}},{"id":"-6460534106546182086","display":"Bristol Radical Film Festival","shortDisplay":"brff","address":{"addressLine1":"82 Ridgeway Road","addressLine2":"Fishponds Road","zip":"BS16 3EA","location":{"latitude":51.478255,"longitude":-2.53455}}},{"id":"-6604649294622037958","display":"Bristol Tandem Hire","shortDisplay":"bristoltandemhire","address":{"zip":"BS3 4QL","location":{"latitude":51.439144,"longitude":-2.590151}}},{"id":"-6172303730394470342","display":"Bristol Tea Company","shortDisplay":"bristolteaco","address":{"addressLine1":"38 Chelsea Road","addressLine2":"Bristol","zip":"BS5 6AF","location":{"latitude":51.463064,"longitude":-2.562995}}},{"id":"-6316418918470326214","display":"Bristol Ticket Shop","shortDisplay":"bts1","address":{"addressLine1":"41 High Street","addressLine2":"Bristol","zip":"BS1 2AT","location":{"latitude":51.454541,"longitude":-2.592731}}},{"id":"-1992963276194650050","display":"Bristol Tourist Information - Access Point","shortDisplay":"access9tc"},{"id":"-5884073354242758598","display":"Bristol Tourist Information Centre","shortDisplay":"tic1","address":{"addressLine1":"Bristol Visitor Information Centre E Shed","addressLine2":"1 Canons Road","zip":"BS1 5TX","location":{"latitude":51.450887,"longitude":-2.599178}}},{"id":"-6028188542318614470","display":"Bristol Veg Boxes","shortDisplay":"bristolveg","address":{"addressLine1":"13 Henbury Gardens","addressLine2":"Henbury Road","zip":"BS10 7AJ","location":{"latitude":51.504772,"longitude":-2.628277}}},{"id":"-5595842978091046854","display":"Bristol Wood Recycling Project","shortDisplay":"bwrp","address":{"addressLine1":"13 Cattle Market Road","addressLine2":"St Philips","zip":"BS1 6QW","location":{"latitude":51.448541,"longitude":-2.579264}}},{"id":"-5307612601939335110","display":"Brown in Town","shortDisplay":"brownintown","address":{"addressLine1":"The Cigar Humidor","addressLine2":"Hotel du Vin","zip":"BS1 2NU","location":{"latitude":51.456728,"longitude":-2.596214}}},{"id":"-5451727790015190982","display":"BrunelOne.com","shortDisplay":"brunelone","address":{"addressLine1":"Hope Road","addressLine2":"Bedminster","zip":"BS3 3NZ","location":{"latitude":51.436455,"longitude":-2.602347}}},{"id":"6653948008356702267","display":"B S Cleaning Ltd","shortDisplay":"bsclean","address":{"addressLine1":"16 Parson Street","addressLine2":"Bedminster","zip":"BS3 5PT","location":{"latitude":51.43267,"longitude":-2.606885}}},{"id":"-5019382225787623366","display":"BSSIX Creative","shortDisplay":"bssix","address":{"zip":"BS6 5LU","location":{"latitude":51.466176,"longitude":-2.586038}}},{"id":"-8334031551532308421","display":"Business One","shortDisplay":"business1","image":{"url":"https://bristol.cyclos.org/bristolpoundsandbox03/api/images/profile/RJhG0vgAq4fFr1bvk3iMJICCqYuxSrH4kVvOv09yw5BW4QcPBi5V174vU2xGjTLz_960x720.jpeg"}},{"id":"-5163497413863479238","display":"BUST Food Co-op","shortDisplay":"caterpillar","address":{"addressLine1":"H. Wills Physics Laboratory","addressLine2":"University of Bristol","zip":"BS8 1TL","location":{"latitude":51.45847,"longitude":-2.602074}}},{"id":"-4731151849635911622","display":"Button Media","shortDisplay":"buttonmedia","address":{"zip":"BS16 2JF","location":{"latitude":51.483275,"longitude":-2.52799}}},{"id":"-4875267037711767494","display":"Cafe Conscious","shortDisplay":"jamaica","address":{"addressLine1":"182 Avonvale Road","addressLine2":"Bristol","zip":"BS5 9SX","location":{"latitude":51.454992,"longitude":-2.561504}}},{"id":"-9054607491911587782","display":"Cafe Create","shortDisplay":"cafecreate","address":{"addressLine1":"Create Centre","addressLine2":"Smeaton Road","zip":"BS1 6XN","location":{"latitude":51.447209,"longitude":-2.621891}}},{"id":"-9198722679987443654","display":"Cafe du Jour","shortDisplay":"cafedujour","address":{"addressLine1":"72 Whiteladies Road","addressLine2":"Clifton","zip":"BS8 2QA","location":{"latitude":51.465905,"longitude":-2.611155}}},{"id":"-8766377115759876038","display":"Cafe Grounded (Bedminster)","shortDisplay":"grounded2","address":{"addressLine1":"66-68 Bedminster Parade","addressLine2":"Bedminster","zip":"BS3 4HL","location":{"latitude":51.44392,"longitude":-2.59326}}},{"id":"-8910492303835731910","display":"Cafe Grounded (Brislington)","shortDisplay":"grounded4","address":{"addressLine1":"53-55 Sandy Park Road","addressLine2":"Brislington","zip":"BS4 3PH","location":{"latitude":51.440591,"longitude":-2.555295}}},{"id":"-8478146739608164294","display":"Cafe Grounded (Gloucester Road)","shortDisplay":"grounded3","address":{"addressLine1":"421-425 Gloucester Road","addressLine2":"Horfield","zip":"BS7 8TZ","location":{"latitude":51.485118,"longitude":-2.585931}}},{"id":"-8622261927684020166","display":"Cafe Grounded (Redfield)","shortDisplay":"grounded1","address":{"addressLine1":"287 Church Road","addressLine2":"Redfield","zip":"BS5 9HT","location":{"latitude":51.459693,"longitude":-2.552605}}},{"id":"-8189916363456452550","display":"Cafe Kino","shortDisplay":"cafekino","address":{"addressLine1":"108 Stokes Croft","addressLine2":"Bristol","zip":"BS1 3RU","location":{"latitude":51.464057,"longitude":-2.589513}}},{"id":"-8334031551532308422","display":"Cafe Sewciety","shortDisplay":"sewteacake","address":{"addressLine1":"9 The Mall","addressLine2":"Clifton","zip":"BS8 4DP","location":{"latitude":51.454782,"longitude":-2.620838}}},{"id":"-7901685987304740806","display":"Call of the Brave","shortDisplay":"callofthebrave","address":{"zip":"BS1 6QH","location":{"latitude":51.448988,"longitude":-2.583486}}},{"id":"-8045801175380596678","display":"Cannon Fire & Security","shortDisplay":"cannon","address":{"addressLine1":"The Old Church","addressLine2":"113A Gloucester Road North","zip":"BS34 7PT","location":{"latitude":51.507007,"longitude":-2.576994}}},{"id":"-7613455611153029062","display":"Canteen","shortDisplay":"canteen","address":{"addressLine1":"80 Stokes Croft","addressLine2":"Bristol","zip":"BS1 3QY","location":{"latitude":51.462862,"longitude":-2.589353}}},{"id":"-7757570799228884934","display":"Carol Peace","shortDisplay":"carolpeace","image":{"url":"https://bristol.cyclos.org/bristolpoundsandbox03/api/images/profile/R1yFvFPDvC6HkqBFsEUGj1APEAdI9XlgFWtUzh7tQb8w2wFGSWLeDswgkjoR7lKL_960x600.jpeg"},"address":{"addressLine1":"Unit 5.3","addressLine2":"Paintworks","zip":"BS4 3EH","location":{"latitude":51.437902,"longitude":-2.41036}}},{"id":"-7325225235001317318","display":"Cartridge Right","shortDisplay":"cright","address":{"addressLine1":"53 Gloucester Road","addressLine2":"Bishopston","zip":"BS7 8AD","location":{"latitude":51.471572,"longitude":-2.59236}}},{"id":"-7469340423077173190","display":"Catkins","shortDisplay":"catkins","address":{"addressLine1":"37 Anstey Street","addressLine2":"Easton","zip":"BS5 6DG","location":{"latitude":51.466127,"longitude":-2.562579}}},{"id":"-7036994858849605574","display":"Cats Whiskers","shortDisplay":"catswhiskers","address":{"addressLine1":"15 The Ridge","addressLine2":"Coalpit Heath","zip":"BS36 2PR","location":{"latitude":51.527542,"longitude":-2.470511}}},{"id":"-7181110046925461446","display":"Centonex Ltd","shortDisplay":"centonex","address":{"addressLine1":"7 Unity Street","addressLine2":"Bristol","zip":"BS1 5HH","location":{"latitude":51.453626,"longitude":-2.600421}}},{"id":"7086293572584269882","display":"Ceridwen Bloor (Osteopath)","shortDisplay":"cbloorosteopath","address":{"addressLine1":"33 Ambrose Road","addressLine2":"Cliftonwood","zip":"BS8 4RJ","location":{"latitude":51.450513,"longitude":-2.615727}}},{"id":"6942178384508414010","display":"Chai Shai Kitchen","shortDisplay":"chai","address":{"addressLine1":"4 Jacobs Wells Road","addressLine2":"Hotwells","zip":"BS8 1EA","location":{"latitude":51.451132,"longitude":-2.607667}}},{"id":"7662754324887693370","display":"Chestnut Farm Eggs","shortDisplay":"chestnutfarmeggs","address":{"addressLine1":"Chestnut Farm","addressLine2":"Mays Hill","zip":"BS36 2NS","location":{"latitude":51.535762,"longitude":-2.449589}}},{"id":"7950984701039405114","display":"Chickpea Bristol","shortDisplay":"chickpea","address":{"addressLine1":"1B Pitville Place","addressLine2":"Cotham Hill","zip":"BS6 6JZ","location":{"latitude":51.462717,"longitude":-2.599645}}},{"id":"7806869512963549242","display":"Chilli Daddy","shortDisplay":"chillidaddy","address":{"addressLine1":"17 Perry Road","addressLine2":"Bristol","zip":"BS1 5BG","location":{"latitude":51.456746,"longitude":-2.597949}}},{"id":"8239215077191116858","display":"Chinese Medicine Bristol","shortDisplay":"sandraarbelaez","address":{"addressLine1":"5 Lyppiatt Road","addressLine2":"Redfield","zip":"BS5 9HW","location":{"latitude":51.460153,"longitude":-2.554237}}},{"id":"7518639136811837498","display":"Chi Wholefoods","shortDisplay":"chiw","address":{"zip":"BS2 0UL","location":{"latitude":51.448345,"longitude":-2.57339}}},{"id":"8527445453342828602","display":"CJs Coffee House & Deli","shortDisplay":"cjscoffee","address":{"addressLine1":"14 Upper Maudlin Street","addressLine2":"Bristol","zip":"BS2 8DJ","location":{"latitude":51.45731,"longitude":-2.596845}}},{"id":"8383330265266972730","display":"Clifton Cakes","shortDisplay":"cliftoncakes","address":{"addressLine1":"120 St Georges Road","addressLine2":"College Green","zip":"BS1 5UJ","location":{"latitude":51.450798,"longitude":-2.606582}}},{"id":"8815675829494540346","display":"Clifton Water Solutions Ltd.","shortDisplay":"cliftonwater","address":{"addressLine1":"11 The Cedars","addressLine2":"Woodside","zip":"BS9 1QA","location":{"latitude":51.475026,"longitude":-2.637308}}},{"id":"8671560641418684474","display":"Clifton Wine School","shortDisplay":"cliftonws","address":{"zip":"BS3","location":{"latitude":51.438946,"longitude":-2.600472}}},{"id":"8959791017570396218","display":"Cliftonwood","shortDisplay":"cliftonwood","address":{"addressLine1":"25 Oak Road","addressLine2":"Bristol","zip":"BS7 8RY","location":{"latitude":51.482714,"longitude":-2.588272}}},{"id":"9103906205646252090","display":"Clifton Workshop","shortDisplay":"cwsbs1","address":{"addressLine1":"139 St Georges Road","addressLine2":"Bristol","zip":"BS1 5UW","location":{"latitude":51.450936,"longitude":-2.607126}}},{"id":"4780450563370575930","display":"Climate Works Ltd","shortDisplay":"climateworksltd","address":{"addressLine1":"Climate Works Ltd","addressLine2":"CREATE Centre","zip":"BS1 6XN","location":{"latitude":51.447209,"longitude":-2.621891}}},{"id":"4636335375294720058","display":"Cloudwired Ltd","shortDisplay":"cloudwired","address":{"addressLine1":"Bristol","zip":"BS7 8LA","location":{"latitude":51.478142,"longitude":-2.593564}}},{"id":"-695926583511947202","display":"CodeBase","shortDisplay":"codebase_edin","address":{"addressLine1":"38 Castle Terrace","zip":"EH3 9DZ","location":{"latitude":55.947155,"longitude":-3.201702}}},{"id":"5356911315673999418","display":"Coexist CIC","shortDisplay":"coexist","address":{"addressLine1":"Hamilton House","addressLine2":"80 Stokes Croft","zip":"BS1 3QY","location":{"latitude":51.462862,"longitude":-2.589353}}},{"id":"5212796127598143546","display":"Cohesion","shortDisplay":"cohesion","address":{"addressLine1":"289 Church Road","addressLine2":"Redfield","zip":"BS5 9HT","location":{"latitude":51.459658,"longitude":-2.55144}}},{"id":"5068680939522287674","display":"Co-LAB","shortDisplay":"colab","address":{"addressLine1":"51–53 Merchant Street","addressLine2":"Bristol","zip":"BS1 3EE","location":{"latitude":51.45849,"longitude":-2.589435}}},{"id":"5645141691825711162","display":"Collecteco","shortDisplay":"collecteco","address":{"addressLine1":"Easton Business Centre","addressLine2":"Felix Rd","zip":"BS5 0HE","location":{"latitude":51.4621,"longitude":-2.567628}}},{"id":"5501026503749855290","display":"Compuwave Computers","shortDisplay":"compuwave","address":{"addressLine1":"237 North Street","addressLine2":"Bedminster","zip":"BS3 1JJ","location":{"latitude":51.441301,"longitude":-2.612465}}},{"id":"5933372067977422906","display":"Connected","shortDisplay":"connected","address":{"addressLine1":"Bishopston","addressLine2":"Bristol","zip":"BS7","location":{"latitude":51.479607,"longitude":-2.594891}}},{"id":"1321686049550035007","display":"Connor Settle","shortDisplay":"csettle","image":{"url":"https://bristol.cyclos.org/bristolpoundsandbox03/api/images/profile/NheHPs6AjhGBo63gDzN26ITGnlt8i89RPPYYYZWEMRPUFsLZ3btXXIh0dguDqeEX_150x150.png"},"address":{"addressLine1":"College Green","zip":"BS1 5TR","location":{"latitude":51.452607,"longitude":-2.600075}}},{"id":"5789256879901567034","display":"Copoazu","shortDisplay":"copoazu","address":{"zip":"BS3","location":{"latitude":51.438946,"longitude":-2.600472}}},{"id":"6221602444129134650","display":"CoResist","shortDisplay":"coresist","address":{"addressLine1":"Hamilton House","addressLine2":"80 Stokes Croft","zip":"BS1 3QY","location":{"latitude":51.462862,"longitude":-2.589353}}},{"id":"6077487256053278778","display":"Corinne Evans Jewellery","shortDisplay":"cejewellery","address":{"zip":"bs3 3hp","location":{"latitude":51.436357,"longitude":-2.607638}}},{"id":"4924565751446431802","display":"Co-Wheels Car Club","shortDisplay":"cowheels","address":{"addressLine1":"Co-Wheels","addressLine2":"Create Centre","zip":"BS1 6XN","location":{"latitude":51.447062,"longitude":-2.622256}}},{"id":"6509832820280846394","display":"Creative Commercial","shortDisplay":"creativecommercial","address":{"zip":"BS1 3DB","location":{"latitude":51.456306,"longitude":-2.592632}}},{"id":"6365717632204990522","display":"CUPP","shortDisplay":"cupp","address":{"addressLine1":"Philadelphia Street","addressLine2":"Bristol","zip":"BS1 3BZ","location":{"latitude":51.456972,"longitude":-2.587129}}},{"id":"6798063196432558138","display":"Cycle the City","shortDisplay":"cyclethecity","address":{"addressLine1":"No. 1 Harbourside","addressLine2":"1 Canon's Road","zip":"BS1 5UH","location":{"latitude":51.450887,"longitude":-2.599178}}},{"id":"2330492366081026106","display":"Dandylion Jack","shortDisplay":"dandylionjack","address":{"zip":"BS22 6BA","location":{"latitude":51.360633,"longitude":-2.911928}}},{"id":"2474607554156881978","display":"Dan Radburn Electrics","shortDisplay":"danradburn","address":{"addressLine1":"25 Gratitude Road","addressLine2":"Bristol","zip":"BS5 6EH","location":{"latitude":51.465951,"longitude":-2.556187}}},{"id":"2762837930308593722","display":"Delmonico","shortDisplay":"delmonico","address":{"addressLine1":"217 Gloucester Road","addressLine2":"Bishopston","zip":"BS7 8NN","location":{"latitude":51.476085,"longitude":-2.590396}}},{"id":"-4154691097332488130","display":"Dev Test Member","shortDisplay":"testmember"},{"id":"6653948008356702266","display":"D Fitzgerald Electrical","shortDisplay":"fitzgerald","address":{"addressLine1":"30 Queensholm Drive","addressLine2":"Downend","zip":"BS16 6LA","location":{"latitude":51.501044,"longitude":-2.502907}}},{"id":"2618722742232737850","display":"Dial a Geek","shortDisplay":"dialageek","address":{"addressLine1":"The Fire Station","addressLine2":"82-84 York Road","zip":"BS3 4AL","location":{"latitude":51.444709,"longitude":-2.58864}}},{"id":"3051068306460305466","display":"Different Ways","shortDisplay":"peace","address":{"addressLine1":"77 Hamilton Road","addressLine2":"Southville","zip":"BS3 1NZ","location":{"latitude":51.443111,"longitude":-2.607216}}},{"id":"2906953118384449594","display":"Dig Haushizzle","shortDisplay":"shizzle","address":{"addressLine1":"51 Colston Street","addressLine2":"Bristol","zip":"BS1 5AX","location":{"latitude":51.456049,"longitude":-2.597686}}},{"id":"3339298682612017210","display":"Dipsy Chicks","shortDisplay":"dipsychicks","address":{"zip":"BS3","location":{"latitude":51.438946,"longitude":-2.600472}}},{"id":"3195183494536161338","display":"DJR Associates","shortDisplay":"djrassociates","address":{"addressLine1":"1 Bowden Way","addressLine2":"Failand","zip":"BS8 3XA","location":{"latitude":51.439935,"longitude":-2.693651}}},{"id":"3627529058763728954","display":"Dominic Busher","shortDisplay":"busher","address":{"addressLine1":"3a Hawkesbury Road","addressLine2":"Fishponds","zip":"BS16 2AP","location":{"latitude":51.476006,"longitude":-2.543293}}},{"id":"3915759434915440698","display":"dona B drawings","shortDisplay":"donab","address":{"addressLine1":"Studio 221","addressLine2":"179 Whiteladies Road","zip":"BS8 2AG","location":{"latitude":51.469162,"longitude":-2.613868}}},{"id":"3483413870687873082","display":"Don't Tell Arthur","shortDisplay":"donttellarthur","address":{"addressLine1":"DTA House","addressLine2":"1 Oxen Leaze","zip":"BS32 0EA","location":{"latitude":51.54442,"longitude":-2.549002}}},{"id":"3771644246839584826","display":"Dunleavy Vineyards","shortDisplay":"dunleavy","address":{"zip":"BS40 5RS","location":{"latitude":51.35509,"longitude":-2.751779}}},{"id":"4059874622991296570","display":"Earthbound","shortDisplay":"earthbound","address":{"addressLine1":"8 Abbotsford Road","addressLine2":"Bristol","zip":"BS6 6HB","location":{"latitude":51.464252,"longitude":-2.606456}}},{"id":"4492220187218864186","display":"Earthcare Gardens. Bristol","shortDisplay":"earthcare","address":{"addressLine1":"St. Paul's","addressLine2":"Bristol","zip":"BS2","location":{"latitude":51.464381,"longitude":-2.578111}}},{"id":"4348104999143008314","display":"East Bristol Bakery","shortDisplay":"eastbrisbakery","address":{"addressLine1":"112 St. Mark's Road","addressLine2":"Easton","zip":"BS5 6JD","location":{"latitude":51.468812,"longitude":-2.56468}}},{"id":"168764544943188026","display":"Easton Arts Trail","shortDisplay":"eastonartstrail","address":{"addressLine1":"C/o Tuckett House","addressLine2":"Tucket Lane","zip":"BS16 1LL","location":{"latitude":51.494447,"longitude":-2.519001}}},{"id":"24649356867332154","display":"Easton Community Centre","shortDisplay":"eastoncc","address":{"addressLine1":"Kilburn Street","addressLine2":"Easton","zip":"BS5 6AW","location":{"latitude":51.461881,"longitude":-2.563283}}},{"id":"312879733019043898","display":"Eatcake Design","shortDisplay":"eatcakedesign","address":{"addressLine1":"2 Queen Street","addressLine2":"Bristol","zip":"BS2 0JB","location":{"latitude":51.454315,"longitude":-2.586233}}},{"id":"456994921094899770","display":"Eat Drink Bristol Fashion in Queen's Square!","shortDisplay":"eatdrinkevents","address":{"addressLine1":"Queen Square","addressLine2":"Bristol","zip":"BS1 4LH","location":{"latitude":51.450426,"longitude":-2.596096}}},{"id":"4203989811067152442","display":"e-Aware","shortDisplay":"eaware","address":{"addressLine1":"Colston Yard","addressLine2":"off Colston Street","zip":"BS1 5BD","location":{"latitude":51.457217,"longitude":-2.597096}}},{"id":"745225297246611514","display":"Eco IP Communications","shortDisplay":"ecoip","address":{"addressLine1":"2 Southfield Road","addressLine2":"Bristol","zip":"BS9 3BH","location":{"latitude":51.490979,"longitude":-2.61733}}},{"id":"601110109170755642","display":"Ecomotive Limited","shortDisplay":"ecomotive","address":{"addressLine1":"Unit 2","addressLine2":"228 Mina Road","zip":"BS2 9YP","location":{"latitude":51.474051,"longitude":-2.577086}}},{"id":"1033455673398323258","display":"Edna's Kitchen","shortDisplay":"ednas","address":{"addressLine1":"Castle Park","addressLine2":"Bristol","zip":"BS1 3XD","location":{"latitude":51.455702,"longitude":-2.588048}}},{"id":"889340485322467386","display":"El Colmado Charcuterie","shortDisplay":"elcolmado","address":{"addressLine1":"57 Gloucester Road","addressLine2":"Bristol","zip":"BS7 8AD","location":{"latitude":51.471621,"longitude":-2.592239}}},{"id":"1321686049550035002","display":"Eleanor Breen Acupuncture","shortDisplay":"eleanoracu","address":{"addressLine1":"Breathe Bristol Yoga & Therapy Centre, 3 All Saints Court","addressLine2":"St Nicholas Market","zip":"BS1 1JN","location":{"latitude":51.454541,"longitude":-2.593056}}},{"id":"1177570861474179130","display":"Eleanor Day Acupuncturist","shortDisplay":"eleanord","address":{"addressLine1":"Yanley Ln Long Ashton","zip":"BS41 9LR","location":{"latitude":51.424913,"longitude":-2.648702}}},{"id":"1609916425701746746","display":"Elsie Belle","shortDisplay":"elsiebelle","address":{"addressLine1":"Harbourside","addressLine2":"1 Canons Road","zip":"BS1 5TX","location":{"latitude":51.450887,"longitude":-2.599178}}},{"id":"1465801237625890874","display":"Elworthy Office Supplies","shortDisplay":"elworthy","address":{"addressLine1":"185 Redland Road (Corner of Coldharbour Road)","addressLine2":"Redland","zip":"BS6 6XP","location":{"latitude":51.473134,"longitude":-2.61153}}},{"id":"1898146801853458490","display":"Emma-Louise Hardman - Childminder","shortDisplay":"emmalouisehardman","address":{"addressLine1":"St. Werburghs","addressLine2":"Bristol","zip":"BS2","location":{"latitude":51.469744,"longitude":-2.574038}}},{"id":"1754031613777602618","display":"Energy Stress Relief (Jo Baker)","shortDisplay":"jostr","address":{"addressLine1":"91 Richmond Road","addressLine2":"Montpelier","zip":"BS6 5ED","location":{"latitude":51.46821,"longitude":-2.585589}}},{"id":"2186377178005170234","display":"Environmental Stewardship","shortDisplay":"estewardhealth","address":{"zip":"BS7 8LJ","location":{"latitude":51.478707,"longitude":-2.597344}}},{"id":"2042261989929314362","display":"Equilibrium Markets Ltd","shortDisplay":"freshrange","address":{"addressLine1":"2 Redland Green Road","addressLine2":"Bristol","zip":"BS6 7HE","location":{"latitude":51.472725,"longitude":-2.604377}}},{"id":"-2137078464270505927","display":"Espirito Coffee Lounge","shortDisplay":"espiritobristol","address":{"addressLine1":"2-3 Denmark Street","addressLine2":"Bristol","zip":"BS1 5DQ","location":{"latitude":51.452825,"longitude":-2.598419}}},{"id":"-2281193652346361799","display":"Essential Trading Ltd.","shortDisplay":"essential","address":{"addressLine1":"Unit 3","addressLine2":"Lodge Causeway Trading Estate","zip":"BS16 3JB","location":{"latitude":51.475464,"longitude":-2.536377}}},{"id":"-1848848088118794183","display":"Extra Mile Printing","shortDisplay":"extramile","address":{"addressLine1":"226a North street","zip":"BS3 1JD","location":{"latitude":51.440984,"longitude":-2.611265}}},{"id":"-1992963276194650055","display":"Family Camper","shortDisplay":"familycamper","address":{"addressLine1":"41 Providence Lane","addressLine2":"Long Ashton","zip":"BS41 9DL","location":{"latitude":51.432007,"longitude":-2.664496}}},{"id":"-1560617711967082439","display":"Feral Trade","shortDisplay":"feraltrade","address":{"addressLine1":"St Paul's","addressLine2":"Bristol","zip":"BS2","location":{"latitude":51.464381,"longitude":-2.578111}}},{"id":"-1704732900042938311","display":"Figo Home","shortDisplay":"figohome","address":{"addressLine1":"Studio 2C, Hamilton House","addressLine2":"80 Stokes Croft","zip":"BS1 3QY","location":{"latitude":51.462862,"longitude":-2.589353}}},{"id":"-1272387335815370695","display":"First Bus (First Travel Shop)","shortDisplay":"first","address":{"addressLine1":"First Travel Shop","addressLine2":"Bristol Bus Station","zip":"BS1 3NU","location":{"latitude":51.459693,"longitude":-2.592454}}},{"id":"-1416502523891226567","display":"First Great Western Trains Ltd","shortDisplay":"firsttrains","address":{"addressLine1":"Finance C/o Andrew Taylor","addressLine2":"Retail Audit Manger","zip":"SN1 1HL","location":{"latitude":51.564435,"longitude":-1.784405}}},{"id":"-551811395436091330","display":"First Time User","shortDisplay":"ftuser"},{"id":"-984156959663658951","display":"Flavalanche Ltd","shortDisplay":"flava","address":{"addressLine1":"54 Park Street","addressLine2":"Bristol","zip":"BS1 5JN","location":{"latitude":51.454543,"longitude":-2.6028}}},{"id":"-1128272147739514823","display":"Flo-Jo Boutique","shortDisplay":"flojo","address":{"addressLine1":"Flo-jo Boutique","addressLine2":"36b Gloucester Road","zip":"BS7 8AR","location":{"latitude":51.472669,"longitude":-2.591361}}},{"id":"-695926583511947207","display":"Floriography by Vera Fallacy","shortDisplay":"floriography","address":{"zip":"BS16 3QZ","location":{"latitude":51.473256,"longitude":-2.524448}}},{"id":"-840041771587803079","display":"Folk House Cafe & Bar","shortDisplay":"fhc1","address":{"addressLine1":"The Folk House","addressLine2":"40A Park Street","zip":"BS1 5JG","location":{"latitude":51.454225,"longitude":-2.602208}}},{"id":"-407696207360235463","display":"Foodtrade","shortDisplay":"food","address":{"addressLine1":"Bristol Spaceworks","addressLine2":"Felix Road","zip":"BS5 0HE","location":{"latitude":51.462722,"longitude":-2.567514}}},{"id":"-551811395436091335","display":"Foot Health Plus","shortDisplay":"fhp63","address":{"addressLine1":"Beaufort Road","addressLine2":"St. George","zip":"BS5 8JG","location":{"latitude":51.458534,"longitude":-2.542961}}},{"id":"-263581019284379591","display":"Fox Davidson Mortgage Brokers","shortDisplay":"foxdav","address":{"addressLine1":"Merchants House North","addressLine2":"Wapping Road","zip":"BS1 4RW","location":{"latitude":51.447966,"longitude":-2.596742}}},{"id":"-119465831208523719","display":"Fox + Monkey","shortDisplay":"foxandmonkey","address":{"addressLine1":"Bristol","zip":"BS6","location":{"latitude":51.467857,"longitude":-2.600082}}},{"id":"-4442921473484199879","display":"FRANK Water Ltd","shortDisplay":"frankwater","address":{"addressLine1":"2B Wellington Lane","addressLine2":"Bristol","zip":"BS6 5PY","location":{"latitude":51.465285,"longitude":-2.588056}}},{"id":"-4587036661560055751","display":"Fred Baker Cycles","shortDisplay":"fredbakercycles","address":{"addressLine1":"144 Cheltenham Road","addressLine2":"Bristol","zip":"BS6 5RL","location":{"latitude":51.465214,"longitude":-2.590043}}},{"id":"-4154691097332488135","display":"Freeze Peach / Lo-Brow","shortDisplay":"lobrow","address":{"addressLine1":"Flat 295 Gloucester Road","addressLine2":"Bristol","zip":"BS7 8PE","location":{"latitude":51.480423,"longitude":-2.588525}}},{"id":"-4298806285408344007","display":"FruitMe!","shortDisplay":"fruitmebristol","address":{"addressLine1":"Market Stall (Outside Arnolfini)","addressLine2":"Narrow Quay","zip":"BS1 4QA","location":{"latitude":51.449241,"longitude":-2.597333}}},{"id":"-3866460721180776391","display":"Full Court Press  - Speciality Coffee","shortDisplay":"fcpcoffee","address":{"addressLine1":"59 Broad Street","addressLine2":"Bristol","zip":"BS1 2EJ","location":{"latitude":51.45516,"longitude":-2.59299}}},{"id":"-4010575909256632263","display":"Funky B Motorhomes Ltd","shortDisplay":"funkyb","address":{"zip":"BS37 6LS","location":{"latitude":51.532498,"longitude":-2.375341}}},{"id":"-3722345533104920519","display":"Gaines Greengrocers","shortDisplay":"gaines","address":{"addressLine1":"172 Wells Road","addressLine2":"Bristol","zip":"BS4 2AL","location":{"latitude":51.440278,"longitude":-2.573872}}},{"id":"-3289999968877352903","display":"Gardner's Patch (Gloucester Road)","shortDisplay":"gardnerspatch","address":{"addressLine1":"159 Gloucester Road","addressLine2":"Bristol","zip":"BS7 8BA","location":{"latitude":51.474238,"longitude":-2.591362}}},{"id":"-3434115156953208775","display":"Gary Bristow Design","shortDisplay":"garybristow","address":{"addressLine1":"6 Foxe Road","addressLine2":"Frampton Cotterell","zip":"BS36 2AE","location":{"latitude":51.535047,"longitude":-2.485029}}},{"id":"-3001769592725641159","display":"GingerBeard's Preserves","shortDisplay":"gingerbeards","address":{"addressLine1":"Montpelier","addressLine2":"Bristol","zip":"BS6","location":{"latitude":51.466851,"longitude":-2.586107}}},{"id":"-3578230345029064647","display":"G J Treasure Cleaning Contractors","shortDisplay":"treasure","address":{"addressLine1":"Unit 6, Barnack Trading Centre","addressLine2":"Novers Hill","zip":"BS3 5QE","location":{"latitude":51.429188,"longitude":-2.600954}}},{"id":"-3145884780801497031","display":"Glassboat","shortDisplay":"glassboat","address":{"addressLine1":"Glassboat","addressLine2":"Welsh Back","zip":"BS1 4SB","location":{"latitude":51.451652,"longitude":-2.59271}}},{"id":"-2713539216573929415","display":"Grain Barge","shortDisplay":"grainbarge","address":{"addressLine1":"Mardyke Wharf","addressLine2":"Hotwell Rd","zip":"BS8 4RU","location":{"latitude":51.44938,"longitude":-2.613941}}},{"id":"-2857654404649785287","display":"Grape and Grind","shortDisplay":"grapegrind","address":{"addressLine1":"101 Gloucester Road","addressLine2":"Bristol","zip":"BS7 8AT","location":{"latitude":51.472767,"longitude":-2.591137}}},{"id":"-6748764482697893831","display":"Greenbank 5 Health Hub","shortDisplay":"greenbank5","address":{"addressLine1":"14 Bruce Avenue","addressLine2":"Greenbank","zip":"BS5 6EF","location":{"latitude":51.465741,"longitude":-2.557074}}},{"id":"-2425308840422217671","display":"Green Hat Graphic Design","shortDisplay":"greenhat","address":{"addressLine1":"17 Backfields Lane","addressLine2":"Bristol","zip":"BS2 8QW","location":{"latitude":51.462079,"longitude":-2.588708}}},{"id":"-2569424028498073543","display":"Green Planet Homes Ltd","shortDisplay":"greenplanet","address":{"zip":"BS4 4EN","location":{"latitude":51.446683,"longitude":-2.54872}}},{"id":"-6892879670773749703","display":"Greensource Solutions","shortDisplay":"greensource","address":{"addressLine1":"14 Kingsland Trading Estate","addressLine2":"St. Philips Rd","zip":"BS2 0JZ","location":{"latitude":51.455419,"longitude":-2.575627}}},{"id":"-6460534106546182087","display":"Grenville Wick (formerly known as Cardiac)","shortDisplay":"cardiac","address":{"addressLine1":"253 North Street","addressLine2":"Bedminster","zip":"BS3 1JN","location":{"latitude":51.441559,"longitude":-2.612878}}},{"id":"-6604649294622037959","display":"Guy Fawkes Hair and Beauty","shortDisplay":"gfhb","address":{"addressLine1":"6-8 St. Nicholas Street","addressLine2":"Bristol","zip":"BS1 1UQ","location":{"latitude":51.454111,"longitude":-2.592719}}},{"id":"889340485322467391","display":"gwaccesstest","shortDisplay":"gwaccesstest"},{"id":"-6172303730394470343","display":"Gwe Business West Ltd","shortDisplay":"businesswest","address":{"addressLine1":"Leigh Court","addressLine2":"Abbots Leigh","zip":"BS8 3RA","location":{"latitude":51.469722,"longitude":-2.659722}}},{"id":"-6316418918470326215","display":"Happy Holistics","shortDisplay":"happyh","address":{"zip":"GL12","location":{"latitude":51.627321,"longitude":-2.401332}}},{"id":"-5884073354242758599","display":"Happytat Bristol","shortDisplay":"happytat","address":{"addressLine1":"Croft House","addressLine2":"Stokes Croft","zip":"BS1 3TB","location":{"latitude":51.460707,"longitude":-2.591468}}},{"id":"-6028188542318614471","display":"Harmony Complementary Therapies","shortDisplay":"elly","address":{"addressLine1":"3 All Saints Court","zip":"BS1 1JN","location":{"latitude":51.454558,"longitude":-2.592955}}},{"id":"-5595842978091046855","display":"Harvest Natural Foods","shortDisplay":"harvest","address":{"addressLine1":"11 Gloucester road","addressLine2":"Bishopston","zip":"BS7 8AA","location":{"latitude":51.470604,"longitude":-2.593214}}},{"id":"-5019382225787623367","display":"Health Unlimited","shortDisplay":"health","address":{"addressLine1":"248 North Street","addressLine2":"Southville","zip":"BS3 1JD","location":{"latitude":51.441438,"longitude":-2.612043}}},{"id":"-5163497413863479239","display":"Heavenly Hedgerows","shortDisplay":"hhedge","address":{"addressLine1":"Rookehill Farmhouse","addressLine2":"34 Wellsway","zip":"BS31 1HT","location":{"latitude":51.40955,"longitude":-2.493439}}},{"id":"-4731151849635911623","display":"Holbrook Moran (Fishpond Branch)","shortDisplay":"holbrookmoran","address":{"addressLine1":"746 Fishponds Road","addressLine2":"Fishponds","zip":"BS16 3UA","location":{"latitude":51.479503,"longitude":-2.530413}}},{"id":"-4875267037711767495","display":"Holy Spokes","shortDisplay":"holyspokes","address":{"zip":"BS5 0JF","location":{"latitude":51.464385,"longitude":-2.568078}}},{"id":"-9054607491911587783","display":"Homewood Artisan Cheesemakers","shortDisplay":"eweschs","address":{"addressLine1":"Manor Lodge","addressLine2":"Back Lane","zip":"BA3 4PE","location":{"latitude":51.2908,"longitude":-2.584375}}},{"id":"-9198722679987443655","display":"Hooper House Cafe","shortDisplay":"hooper","address":{"addressLine1":"113 Stokes Croft","addressLine2":"Bristol","zip":"BS1 3RW","location":{"latitude":51.463728,"longitude":-2.589907}}},{"id":"-8766377115759876039","display":"Horritt Consulting","shortDisplay":"horritt","address":{"addressLine1":"5 Muller House","addressLine2":"Ashley Down Road","zip":"BS7 9DA","location":{"latitude":51.476744,"longitude":-2.579122}}},{"id":"-8910492303835731911","display":"Hrothgar Stibbon - Handmade Leathergoods","shortDisplay":"hstibbon","address":{"addressLine1":"16 Gores Marsh Road","addressLine2":"Ashton","zip":"BS3 2PE","location":{"latitude":51.436203,"longitude":-2.613833}}},{"id":"-8478146739608164295","display":"Hudson Accountants","shortDisplay":"hudson","address":{"addressLine1":"14 West Town Road","addressLine2":"Backwell","zip":"BS48 3HH","location":{"latitude":51.41344,"longitude":-2.740272}}},{"id":"-8622261927684020167","display":"Hunter Accountants","shortDisplay":"hunter","address":{"addressLine1":"3 Kings Court","addressLine2":"Little King Street","zip":"BS1 4HW","location":{"latitude":51.451623,"longitude":-2.59404}}},{"id":"1177570861474179135","display":"Ian Thake","shortDisplay":"ithake","image":{"url":"https://bristol.cyclos.org/bristolpoundsandbox03/api/images/profile/zDUIcAkuBEKVVBTFpldT57HyhgciNuyjJLNfSmEc0gyLanzfewxlHxJZmsMKLLRU_80x80.png"}},{"id":"-8189916363456452551","display":"Ideal Community Action","shortDisplay":"ideal","address":{"addressLine1":"Old School House","addressLine2":"Salisbury Street","zip":"BS5 9UD","location":{"latitude":51.452497,"longitude":-2.564606}}},{"id":"-8334031551532308423","display":"Ido Wedding Films","shortDisplay":"idoweddingfilms","address":{"addressLine1":"Queens Square House","addressLine2":"18-21 Queens Square","zip":"BS1 4NH","location":{"latitude":51.450152,"longitude":-2.593182}}},{"id":"-8045801175380596679","display":"Independent Business Centre","shortDisplay":"ibcltd","address":{"addressLine1":"Unity Centre","addressLine2":"7 Unity Street","zip":"BS9 3JZ","location":{"latitude":51.49176,"longitude":-2.622072}}},{"id":"-7613455611153029063","display":"Independents For Bristol","shortDisplay":"ifbristol","address":{"addressLine1":"20 Southernhay Avenue","addressLine2":"Bristol","zip":"BS8 4TJ","location":{"latitude":51.450806,"longitude":-2.609811}}},{"id":"-7901685987304740807","display":"In Recovery Upholstery","shortDisplay":"inrecovery","address":{"addressLine1":"56 North Street","addressLine2":"Bristol","zip":"BS3 1HJ","location":{"latitude":51.440985,"longitude":-2.60401}}},{"id":"-7757570799228884935","display":"Inspirational World","shortDisplay":"insworld","address":{"addressLine1":"South Arcade","addressLine2":"Corn Exchange","zip":"BS1 1LJ","location":{"latitude":51.454335,"longitude":-2.593402}}},{"id":"-7325225235001317319","display":"Inwick","shortDisplay":"inwick","address":{"addressLine1":"Highbury","addressLine2":"Talbots End","zip":"GL12 8AJ","location":{"latitude":51.612844,"longitude":-2.435548}}},{"id":"-7469340423077173191","display":"ISHE (Ian Smith Heating Engineers)","shortDisplay":"ishe","address":{"addressLine1":"46 Picton Street","addressLine2":"Montpelier","zip":"BS6 5QA","location":{"latitude":51.465856,"longitude":-2.588501}}},{"id":"-7036994858849605575","display":"Ivory Flowers","shortDisplay":"ivoryflowers","address":{"addressLine1":"228 North Street","addressLine2":"Southville","zip":"BS3 1JD","location":{"latitude":51.441009,"longitude":-2.611349}}},{"id":"7086293572584269881","display":"Jacob Stow","shortDisplay":"jstow","address":{"addressLine1":"Easton","addressLine2":"Bristol","zip":"BS56JU","location":{"latitude":51.465403,"longitude":-2.564675}}},{"id":"6942178384508414009","display":"Japonica","shortDisplay":"japonica","address":{"addressLine1":"Exchange Hall","addressLine2":"St Nicholas Market","zip":"BS1 1JQ","location":{"latitude":51.454404,"longitude":-2.593529}}},{"id":"7374523948735981625","display":"Jeepers Sweepers","shortDisplay":"jeepers","address":{"addressLine1":"18 Bellevue Rd","addressLine2":"Easton","zip":"BS5 6DS","location":{"latitude":51.460369,"longitude":-2.529283}}},{"id":"7230408760660125753","display":"Jenn Wills Jewellery","shortDisplay":"jwills","address":{"addressLine1":"Studio 9","addressLine2":"Centre Space Studios 6 Leonard Lane","zip":"BS1 1EA","location":{"latitude":51.454629,"longitude":-2.595316}}},{"id":"7662754324887693369","display":"Jenny Life","shortDisplay":"jennylife","address":{"addressLine1":"15 Christmas Steps","addressLine2":"Bristol","zip":"BS1 5BS","location":{"latitude":51.456117,"longitude":-2.596832}}},{"id":"7518639136811837497","display":"Jethro's Bicycle Tattoo Parlour","shortDisplay":"jethrobrice","address":{"addressLine1":"56 Anstey Street","addressLine2":"Easton","zip":"BS5 6DQ","location":{"latitude":51.466219,"longitude":-2.56191}}},{"id":"7950984701039405113","display":"Jewellery Lane","shortDisplay":"jane","address":{"addressLine1":"9 All Saints Lane","addressLine2":"St Nicholas Market","zip":"BS1 1JH","location":{"latitude":51.454596,"longitude":-2.592738}}},{"id":"-7181110046925461447","display":"J Green Plastering & Building Services Ltd","shortDisplay":"jgreenltd","address":{"addressLine1":"11 Cassey Bottom Lane","addressLine2":"St George","zip":"BS5 8BX","location":{"latitude":51.455708,"longitude":-2.530956}}},{"id":"7806869512963549241","display":"JH Groundwater Ltd","shortDisplay":"jhgroundwater","address":{"zip":"BS8 4YB","location":{"latitude":51.448713,"longitude":-2.617703}}},{"id":"8239215077191116857","display":"Joe's Bakery","shortDisplay":"joesbakery","address":{"addressLine1":"240 Gloucester Road","addressLine2":"Bishopston","zip":"BS7 8NZ","location":{"latitude":51.479546,"longitude":-2.58965}}},{"id":"8095099889115260985","display":"Jones Millbank","shortDisplay":"jonesmillbank","address":{"addressLine1":"Queen Square House","addressLine2":"Bristol","zip":"BS1 4NH","location":{"latitude":51.450193,"longitude":-2.593151}}},{"id":"8527445453342828601","display":"Just Ground","shortDisplay":"jgaj","address":{"addressLine1":"St Augustines Parade","addressLine2":"Bristol","zip":"BS1","location":{"latitude":51.453328,"longitude":-2.597774}}},{"id":"8383330265266972729","display":"KA Communications","shortDisplay":"kacomms","address":{"addressLine1":"Lower Park Row","addressLine2":"Bristol","zip":"BS1 5BJ","location":{"latitude":51.455626,"longitude":-2.598999}}},{"id":"8815675829494540345","display":"Kalahari Moon","shortDisplay":"kalaharimoon","address":{"addressLine1":"Shop 86 The Covered Market","addressLine2":"St. Nicholas Market","zip":"BS1 1JQ","location":{"latitude":51.454497,"longitude":-2.59412}}},{"id":"8671560641418684473","display":"Kamalamani","shortDisplay":"kamalamani","address":{"addressLine2":"Bishopston","zip":"BS7","location":{"latitude":51.479607,"longitude":-2.594891}}},{"id":"9103906205646252089","display":"Katcha Bilek","shortDisplay":"katchabilek","address":{"addressLine1":"Hamilton House","addressLine2":"80 Stokes Croft","zip":"BS1 3QY","location":{"latitude":51.462862,"longitude":-2.589353}}},{"id":"8959791017570396217","display":"Kerry Day M.A: Mixed Media Artist","shortDisplay":"kerryday","address":{"addressLine1":"The Artspace Lifespace College","addressLine2":"Marksbury Road (entrance on Timsbury Walk)","zip":"BS3 5JJ","location":{"latitude":51.434095,"longitude":-2.589353}}},{"id":"4780450563370575929","display":"Kew Estates Ltd.","shortDisplay":"kewestates","address":{"addressLine1":"Kew Estates Ltd","addressLine2":"Station House","zip":"BA4 6TA","location":{"latitude":51.148615,"longitude":-2.546149}}},{"id":"4636335375294720057","display":"Kim Peta Watts","shortDisplay":"kimpeta","address":{"addressLine1":"Flat B","addressLine2":"68 West Street","zip":"BS2 0BL","location":{"latitude":51.457186,"longitude":-2.577258}}},{"id":"5068680939522287673","display":"KN Office Supplies","shortDisplay":"knoffice","address":{"addressLine1":"Unit 4A, Olympia House","addressLine2":"Beaconsfield Road","zip":"BS5 8ER","location":{"latitude":51.458628,"longitude":-2.544611}}},{"id":"4924565751446431801","display":"Knowle West Health Park","shortDisplay":"kwhp","address":{"addressLine1":"5 Knowle West Health Park","addressLine2":"Downton Road","zip":"BS4 1WH","location":{"latitude":51.428755,"longitude":-2.59626}}},{"id":"5356911315673999417","display":"La Bonne Crepe","shortDisplay":"labonnecrepe","address":{"addressLine1":"Bristol","zip":"BS3","location":{"latitude":51.438946,"longitude":-2.600472}}},{"id":"5645141691825711161","display":"Lab Shop","shortDisplay":"paper","address":{"addressLine1":"Bristol 2015 Lab","addressLine2":"Canon's Road","zip":"BS1 5TX","location":{"latitude":51.45162,"longitude":-2.598213}}},{"id":"5212796127598143545","display":"La Ruca","shortDisplay":"laruca","address":{"addressLine1":"89 Gloucester Road","addressLine2":"Bishopston","zip":"BS7 8AS","location":{"latitude":51.472408,"longitude":-2.591336}}},{"id":"5501026503749855289","display":"Lathom-Sharp Photography","shortDisplay":"sharpshot","address":{"addressLine2":"Lawrence Weston","zip":"BS11 0NH","location":{"latitude":51.500031,"longitude":-2.659565}}},{"id":"5933372067977422905","display":"Leafy Green","shortDisplay":"leafygreen","address":{"zip":"BS6 5TZ","location":{"latitude":51.46251,"longitude":-2.597967}}},{"id":"5789256879901567033","display":"Leiza Alpass Poise Health","shortDisplay":"poise","address":{"addressLine1":"Clifton College Sports and Leisure Ground","addressLine2":"Abbots Leigh Road","zip":"BS8 3QD","location":{"latitude":51.456692,"longitude":-2.651921}}},{"id":"6221602444129134649","display":"Linden Accountants Ltd","shortDisplay":"linden37","address":{"addressLine1":"21 Sevier Street","addressLine2":"Bristol","zip":"BS2 9LB","location":{"latitude":51.468865,"longitude":-2.57873}}},{"id":"6077487256053278777","display":"Little and Long Coffee Roasters","shortDisplay":"coffee","address":{"addressLine1":"Unit 50","addressLine2":"Station Road","zip":"BS15 4PJ","location":{"latitude":51.474072,"longitude":-2.490413}}},{"id":"6509832820280846393","display":"Little Roar","shortDisplay":"lroar","address":{"addressLine1":"Yew Tree House","addressLine2":"Harris Lane","zip":"BS8 3RZ","location":{"latitude":51.460517,"longitude":-2.665678}}},{"id":"6365717632204990521","display":"Live Now - Love Now - Heal Now","shortDisplay":"magicyou","address":{"addressLine1":"7 Unity Street","addressLine2":"Bristol","zip":"BS1 5HH","location":{"latitude":51.453626,"longitude":-2.600421}}},{"id":"6798063196432558137","display":"Looking Glass Designs Ltd","shortDisplay":"lookingglass","address":{"addressLine1":"Old Market Studios","addressLine2":"68 Old Market Street","zip":"BS2 0EJ","location":{"latitude":51.455732,"longitude":-2.582393}}},{"id":"6653948008356702265","display":"Louise French Illustrations","shortDisplay":"louisef","address":{"addressLine1":"Cotham","addressLine2":"Bristol","zip":"BS6","location":{"latitude":51.466495,"longitude":-2.595426}}},{"id":"2474607554156881977","display":"Louise Morgan","shortDisplay":"louisem","address":{"addressLine1":"Therapy Centre","addressLine2":"12 Kinsale Road","zip":"BS14 9HB","location":{"latitude":51.422482,"longitude":-2.559304}}},{"id":"2762837930308593721","display":"Lovely Drinks","shortDisplay":"lovelydrinks","address":{"addressLine1":"The Old Sawmill","addressLine2":"Home Farm","zip":"BS48 3RW","location":{"latitude":51.411117,"longitude":-2.693617}}},{"id":"2330492366081026105","display":"Love The Fish Shop","shortDisplay":"fishshop","address":{"addressLine1":"143 Gloucester Road","addressLine2":"Bristol","zip":"BS7 8BA","location":{"latitude":51.473739,"longitude":-2.591388}}},{"id":"3051068306460305465","display":"Lucid Financial Services Ltd","shortDisplay":"lucidfs","address":{"addressLine1":"43 Broadleas","addressLine2":"Headley Park","zip":"BS13 7PL","location":{"latitude":51.419325,"longitude":-2.604593}}},{"id":"2906953118384449593","display":"Lucy Anna Flowers","shortDisplay":"laflowers","address":{"addressLine1":"7-8 The Glass Arcade","addressLine2":"St Nicholas Market","zip":"BS1 1LA","location":{"latitude":51.454199,"longitude":-2.593181}}},{"id":"3339298682612017209","display":"Lunartique","shortDisplay":"lunartique","address":{"addressLine1":"South Arcade","addressLine2":"S. Nicholas Market","zip":"BS1 1JQ","location":{"latitude":51.453804,"longitude":-2.594203}}},{"id":"3627529058763728953","display":"Mabboo Limited","shortDisplay":"mabboo","address":{"addressLine1":"Mabboo Hq","addressLine2":"31 Milford Street","zip":"BS3 1EE","location":{"latitude":51.44276,"longitude":-2.604933}}},{"id":"3483413870687873081","display":"Made Fair","shortDisplay":"madefair","address":{"addressLine1":"St. Werburgh's","zip":"BS2","location":{"latitude":51.469744,"longitude":-2.574038}}},{"id":"3915759434915440697","display":"Made In Britain","shortDisplay":"brit","address":{"addressLine1":"Quakers Friars","addressLine2":"Cabot Circus","zip":"BS1 3BU","location":{"latitude":51.458308,"longitude":-2.584834}}},{"id":"3771644246839584825","display":"Magic Touch Treatments","shortDisplay":"magictouch","address":{"zip":"BS20 0NA","location":{"latitude":51.479474,"longitude":-2.700846}}},{"id":"4203989811067152441","display":"MAINPLAY Music","shortDisplay":"mainplaymusic","address":{"addressLine1":"79 Bloomfield Rd","addressLine2":"Brislington","zip":"BS4 3QP","location":{"latitude":51.443527,"longitude":-2.557185}}},{"id":"4059874622991296569","display":"Maitreya Social (Maitreya Cafe)","shortDisplay":"maitreyasocial","address":{"addressLine1":"89 St Mark's Road","addressLine2":"Easton","zip":"BS5 6HY","location":{"latitude":51.468175,"longitude":-2.564655}}},{"id":"4492220187218864185","display":"MAKE","shortDisplay":"make","address":{"addressLine1":"59 Gloucester Road","addressLine2":"Bishopston","zip":"BS7 8AD","location":{"latitude":51.471665,"longitude":-2.592259}}},{"id":"4348104999143008313","display":"Make More Margin","shortDisplay":"makemoremargin","address":{"addressLine1":"1 Friary","addressLine2":"Temple Quay","zip":"BS1 6EA","location":{"latitude":51.450344,"longitude":-2.582373}}},{"id":"168764544943188025","display":"Makers","shortDisplay":"makers","address":{"addressLine1":"82 Colston Street","addressLine2":"Bristol","zip":"BS1 5BB","location":{"latitude":51.456925,"longitude":-2.5973}}},{"id":"24649356867332153","display":"Makey Mamas","shortDisplay":"makeymamas","address":{"addressLine1":"Creative workshops hosted at KudaCan","addressLine2":"Bishopston","zip":"BS7 9HG","location":{"latitude":51.481005,"longitude":-2.587423}}},{"id":"456994921094899769","display":"Mandy's Make Cafe","shortDisplay":"mandysmake","address":{"addressLine1":"8 The Precinct","addressLine2":"Portishead","zip":"BS20 6AH","location":{"latitude":51.48434,"longitude":-2.768074}}},{"id":"312879733019043897","display":"Mark's Bread","shortDisplay":"marksbread","address":{"addressLine1":"291 North Street","addressLine2":"Bedminster","zip":"BS3 1JU","location":{"latitude":51.443031,"longitude":-2.616012}}},{"id":"3195183494536161337","display":"M & D Kidner","shortDisplay":"kidnermd","address":{"addressLine1":"52-54 Wholesale Fruit Centre","addressLine2":"Albert Cr","zip":"BS2 0YP","location":{"latitude":51.444955,"longitude":-2.569542}}},{"id":"745225297246611513","display":"Meadow View Organic Culinary School and Bed and Breakfast","shortDisplay":"meadowview","address":{"addressLine1":"Ham Lane","addressLine2":"Bishop Sutton","zip":"BS39 5TZ","location":{"latitude":51.336415,"longitude":-2.595787}}},{"id":"601110109170755641","display":"Miss Popularity","shortDisplay":"misspopularity","address":{"addressLine1":"Bristol","zip":"BS7 8RJ","location":{"latitude":51.484067,"longitude":-2.588326}}},{"id":"1033455673398323257","display":"mobilampshades","shortDisplay":"Mobi","address":{"addressLine1":"66 Chandag Road","addressLine2":"Keynsham","zip":"BS31 1PL","location":{"latitude":51.408827,"longitude":-2.488195}}},{"id":"889340485322467385","display":"Model Farm","shortDisplay":"modelfarm","address":{"addressLine1":"Model Farm","addressLine2":"Hildersley","zip":"HR9 7NN","location":{"latitude":51.916612,"longitude":-2.567693}}},{"id":"1321686049550035001","display":"Moist","shortDisplay":"moist","address":{"zip":"BS6 7BX","location":{"latitude":51.472625,"longitude":-2.599812}}},{"id":"1177570861474179129","display":"Molten Jewellery","shortDisplay":"molten","address":{"addressLine1":"14 Clinton Road","addressLine2":"Bedminster","zip":"BS3 5PB","location":{"latitude":51.436148,"longitude":-2.600053}}},{"id":"1609916425701746745","display":"Montgomery's Tearooms","shortDisplay":"artwarehouse","address":{"addressLine1":"Wapping Wharf","addressLine2":"Off Wapping Road","zip":"BS1 6UD","location":{"latitude":51.447385,"longitude":-2.596739}}},{"id":"1465801237625890873","display":"Montpelier Real Economy","shortDisplay":"montpelier","address":{"addressLine1":"77 Richmond Road","addressLine2":"Montpelier","zip":"BS6 5EP","location":{"latitude":51.467981,"longitude":-2.585968}}},{"id":"1898146801853458489","display":"Moodles","shortDisplay":"moodles","address":{"addressLine1":"208 Gloucester Road","addressLine2":"Bishopston","zip":"BS7 8NU","location":{"latitude":51.478908,"longitude":-2.589557}}},{"id":"1754031613777602617","display":"Moorish","shortDisplay":"moorish","address":{"zip":"SN14 7JE","location":{"latitude":51.495757,"longitude":-2.27203}}},{"id":"2186377178005170233","display":"Motaman (Bedminster branch)","shortDisplay":"motaman","address":{"addressLine1":"94-96 Bedminster Parade","addressLine2":"Bedminster","zip":"BS3 4HL","location":{"latitude":51.443382,"longitude":-2.593999}}},{"id":"2042261989929314361","display":"Mother's Tucker","shortDisplay":"tastymt","address":{"addressLine1":"18 Christmas Steps","addressLine2":"Bristol","zip":"BS1 5BS","location":{"latitude":51.456159,"longitude":-2.596819}}},{"id":"-2281193652346361800","display":"MrFruit","shortDisplay":"mrfruit","address":{"zip":"BS36 2PA","location":{"latitude":51.530799,"longitude":-2.467906}}},{"id":"-2137078464270505928","display":"Mr. Wolf's","shortDisplay":"mrwolfs","address":{"addressLine1":"33 St Stephens Street","addressLine2":"Bristol","zip":"BS1 1JX","location":{"latitude":51.453778,"longitude":-2.594899}}},{"id":"-1848848088118794184","display":"Mud Dock Cafe","shortDisplay":"muddockcafe","address":{"addressLine1":"40 The Grove","addressLine2":"Bristol","zip":"BS1 4RB","location":{"latitude":51.449287,"longitude":-2.595485}}},{"id":"-1992963276194650056","display":"Mumbleys Farmhouse","shortDisplay":"mumbleysfarmhouse","address":{"addressLine1":"Mumbleys Farmhouse","addressLine2":"Sweetwater Lane","zip":"BS35 3JY","location":{"latitude":51.597908,"longitude":-2.557096}}},{"id":"-1560617711967082440","display":"Nameless Media Group Ltd","shortDisplay":"nameless","address":{"addressLine1":"28 Broad Street","addressLine2":"Bristol","zip":"BS1 2HG","location":{"latitude":51.455721,"longitude":-2.59474}}},{"id":"-1704732900042938312","display":"Natural Born Flooring","shortDisplay":"naturalb","address":{"addressLine1":"203 Gloucester Road","addressLine2":"Bishopston","zip":"BS7 8NN","location":{"latitude":51.475489,"longitude":-2.590584}}},{"id":"-1272387335815370696","display":"Natural Health Physiotherapy","shortDisplay":"nhphysio","address":{"addressLine1":"74A Shirehampton Road","addressLine2":"Stoke Bishop","zip":"BS9 2DR","location":{"latitude":51.48632,"longitude":-2.64102}}},{"id":"-1416502523891226568","display":"Netwalking South West","shortDisplay":"urbancrofter","address":{"addressLine1":"52 Bellevue Crescent","addressLine2":"Cliftonwood","zip":"BS8 4TF","location":{"latitude":51.451619,"longitude":-2.610546}}},{"id":"-984156959663658952","display":"Newsplus Bristol Limited","shortDisplay":"newsplus","address":{"addressLine1":"6 Princess Row","addressLine2":"Bristol","zip":"BS2 8NQ","location":{"latitude":51.461066,"longitude":-2.593407}}},{"id":"-1560617711967082434","display":"New User","shortDisplay":"brandNew"},{"id":"-1128272147739514824","display":"Nicely Sliced Ltd","shortDisplay":"nicelysliced","address":{"addressLine1":"1 Guinea Lane","addressLine2":"Fishponds","zip":"BS16 2HB","location":{"latitude":51.480222,"longitude":-2.530063}}},{"id":"-407696207360235464","display":"No. 12 Easton","shortDisplay":"no12easton","address":{"addressLine1":"12 High St","addressLine2":"Easton","zip":"BS5 6DL","location":{"latitude":51.466427,"longitude":-2.564392}}},{"id":"-840041771587803080","display":"No. 1 Harbourside","shortDisplay":"no1hs","address":{"addressLine1":"1 Canons Road","addressLine2":"Bristol","zip":"BS1 5UH","location":{"latitude":51.450887,"longitude":-2.599178}}},{"id":"-695926583511947208","display":"No 51 Stokes Croft","shortDisplay":"no51","address":{"addressLine1":"51 Stokes Croft","addressLine2":"Bristol","zip":"BS1 3QP","location":{"latitude":51.462065,"longitude":-2.590316}}},{"id":"-551811395436091336","display":"North Somerset Coaches","shortDisplay":"nscoaches","address":{"addressLine1":"Coates Estate","addressLine2":"Southfield Road","zip":"BS48 1JN","location":{"latitude":51.438799,"longitude":-2.75032}}},{"id":"-119465831208523720","display":"Not Too Shabby Clothing","shortDisplay":"nottooshabby","address":{"addressLine1":"Flat 5","addressLine2":"22 Pritchard Street","zip":"BS2 8RJ","location":{"latitude":51.460122,"longitude":-2.58564}}},{"id":"-4442921473484199880","display":"One Hundred","shortDisplay":"onehundred","address":{"addressLine1":"100 Whiteladies Road","addressLine2":"Clifton","zip":"BS8 2QY","location":{"latitude":51.467484,"longitude":-2.612701}}},{"id":"-263581019284379592","display":"On The Dot Bristol","shortDisplay":"onthedot","address":{"addressLine1":"21 Horley Road","addressLine2":"St Werburghs","zip":"BS2 9TL","location":{"latitude":51.468154,"longitude":-2.572981}}},{"id":"-4587036661560055752","display":"Onyx Plumbing","shortDisplay":"onyxplumbing","address":{"zip":"BS48 2NG","location":{"latitude":51.436784,"longitude":-2.765104}}},{"id":"-4154691097332488136","display":"Ooh! Chocolata","shortDisplay":"oohchoc","address":{"addressLine1":"Unit 42","addressLine2":"Southfield Road Trading Estate","zip":"BS48 1JE","location":{"latitude":51.438832,"longitude":-2.752091}}},{"id":"-4298806285408344008","display":"Orca Design","shortDisplay":"orcadesign","address":{"addressLine1":"198 Cheltenham Road","addressLine2":"Bristol","zip":"BS6 5QZ","location":{"latitude":51.468458,"longitude":-2.592076}}},{"id":"-3866460721180776392","display":"Orient Express Silver","shortDisplay":"ayaksiz","address":{"addressLine1":"Corn Exchange","addressLine2":"Corn Street","zip":"BS1 1JQ","location":{"latitude":51.454335,"longitude":-2.593402}}},{"id":"-4010575909256632264","display":"Pachamama","shortDisplay":"pacha","address":{"addressLine1":"Easton Community Centre","addressLine2":"Kilburn Street","zip":"BS5 6AW","location":{"latitude":51.461881,"longitude":-2.563283}}},{"id":"-3578230345029064648","display":"Paper Arts","shortDisplay":"paperarts","address":{"addressLine1":"51-53 Merchant Street","addressLine2":"Broadmead","zip":"BS1 3EE","location":{"latitude":51.45849,"longitude":-2.589435}}},{"id":"-3722345533104920520","display":"Paper Plane","shortDisplay":"paperplane","address":{"addressLine1":"196 Gloucester Road","addressLine2":"Bishopston","zip":"BS7 8NU","location":{"latitude":51.478615,"longitude":-2.58962}}},{"id":"-3289999968877352904","display":"Paper Village","shortDisplay":"papervillage","address":{"addressLine1":"200 North Street","addressLine2":"Southville","zip":"BS3 1JF","location":{"latitude":51.440366,"longitude":-2.610218}}},{"id":"-3434115156953208776","display":"Parenting Group","shortDisplay":"bvbparenting","address":{"addressLine1":"The Courtyard","addressLine2":"127a Lower Cheltenham Place","zip":"BS6 5LB","location":{"latitude":51.468126,"longitude":-2.581096}}},{"id":"-3001769592725641160","display":"Park Street Local","shortDisplay":"parkstlocal","address":{"addressLine1":"42 Park Street","addressLine2":"Bristol","zip":"BS1 5JG","location":{"latitude":51.454305,"longitude":-2.602258}}},{"id":"-2857654404649785288","display":"Pastilla House","shortDisplay":"pastilla","address":{"addressLine1":"Harbourside","zip":"BS1 5HU","location":{"latitude":51.449421,"longitude":-2.59362}}},{"id":"-2425308840422217672","display":"Pasty Emporium","shortDisplay":"pasty","address":{"addressLine1":"Oxford Street Caterers","addressLine2":"The Arches 24 Oxford Street St. Phillips","zip":"BS2 0QU","location":{"latitude":51.452018,"longitude":-2.576229}}},{"id":"-1416502523891226562","display":"Paulin Shek","shortDisplay":"pshek"},{"id":"-2569424028498073544","display":"Peoples Republic Of Stokes Croft CIC","shortDisplay":"prsc","address":{"addressLine1":"Peoples Republic of Stokes Croft CIC","addressLine2":"35 Jamaica Street","zip":"BS2 8JP","location":{"latitude":51.462431,"longitude":-2.590094}}},{"id":"-6748764482697893832","display":"Perpetual Business and Tax Advisors","shortDisplay":"perpetual","address":{"addressLine1":"155 Whiteladies Rd","addressLine2":"Clifton","zip":"BS8 2RF","location":{"latitude":51.467952,"longitude":-2.612917}}},{"id":"-6892879670773749704","display":"Phillip Corbin & Associates","shortDisplay":"pcorbin","address":{"addressLine1":"Trym Lodge","addressLine2":"1 Henbury Road","zip":"BS9 3HQ","location":{"latitude":51.495444,"longitude":-2.618862}}},{"id":"-6460534106546182088","display":"Pickle","shortDisplay":"picklebristol","address":{"addressLine1":"End of Portwall Lane","zip":"BS1 6AG","location":{"latitude":51.449252,"longitude":-2.585415}}},{"id":"-6604649294622037960","display":"Pins N Needles","shortDisplay":"inkme","address":{"addressLine1":"162 Lawrence Hill","addressLine2":"Bristol","zip":"BS5 0DN","location":{"latitude":51.457999,"longitude":-2.566865}}},{"id":"-6172303730394470344","display":"Playfull Toyshop","shortDisplay":"playfull","address":{"addressLine1":"87 Gloucester Road","addressLine2":"Bristol","zip":"BS7 8AS","location":{"latitude":51.472372,"longitude":-2.591377}}},{"id":"-6316418918470326216","display":"Plenty Grocery Store","shortDisplay":"plenty","address":{"addressLine1":"43 St Nicholas Street","addressLine2":"Bristol","zip":"BS1 1TP","location":{"latitude":51.453779,"longitude":-2.594672}}},{"id":"-5884073354242758600","display":"Pocket Intelligence Ltd","shortDisplay":"loyalpocket","address":{"addressLine1":"23 Ravenhead Drive","zip":"BS14 9AT","location":{"latitude":51.423906,"longitude":-2.564482}}},{"id":"-5739958166166902728","display":"Poco","shortDisplay":"poco","address":{"addressLine1":"45 Jamaica St","addressLine2":"Bristol","zip":"BS2 8JP","location":{"latitude":51.462646,"longitude":-2.590685}}},{"id":"-5307612601939335112","display":"Porter's Flapjacks","shortDisplay":"porters","address":{"addressLine1":"Unit 3, Easton Business Centre","addressLine2":"Felix Road","zip":"BS5 0HE","location":{"latitude":51.4621,"longitude":-2.567628}}},{"id":"-840041771587803074","display":"Powerleague Portobello","shortDisplay":"powerleague_edin","image":{"url":"https://bristol.cyclos.org/bristolpoundsandbox03/api/images/profile/4htnvwX9eESZr2cKZHeSsQ239OfzKToWt4JaGHpkAGNLuPzon70ZyhLgQMhvTzhA_229x220.jpeg"},"address":{"addressLine1":"10 Westbank St","zip":"EH15 1DR","location":{"latitude":55.956623,"longitude":-3.11788}}},{"id":"-5451727790015190984","display":"Priority Express","shortDisplay":"priority","address":{"addressLine1":"Unit 5","addressLine2":"St. Philips Central","zip":"BS2 0XJ","location":{"latitude":51.4451,"longitude":-2.568521}}},{"id":"-5019382225787623368","display":"Pristine Ltd","shortDisplay":"pristine","address":{"addressLine1":"Pristine (Bristol) Ltd","addressLine2":"“Little Gort”","zip":"BS9 3NN","location":{"latitude":51.496466,"longitude":-2.621474}}},{"id":"-5163497413863479240","display":"Proof IT Support","shortDisplay":"prooftechie","address":{"addressLine1":"Hydra Books","addressLine2":"34 Old Market Street","zip":"BS2 0EZ","location":{"latitude":51.456397,"longitude":-2.580847}}},{"id":"-4731151849635911624","display":"Proper Job Productions","shortDisplay":"properjob","address":{"addressLine1":"59 Uplands Road","addressLine2":"Fishponds","zip":"BS16 4PH","location":{"latitude":51.475262,"longitude":-2.512656}}},{"id":"-4875267037711767496","display":"ProTom Fitness","shortDisplay":"protom","address":{"addressLine1":"26 Oakfield Road","addressLine2":"Bristol","zip":"BS8 2AT","location":{"latitude":51.460505,"longitude":-2.612697}}},{"id":"-9054607491911587784","display":"Psychopomp Limited","shortDisplay":"psychopomp","address":{"addressLine1":"Montpelier","addressLine2":"Bristol","zip":"BS6 5EH","location":{"latitude":51.467274,"longitude":-2.58765}}},{"id":"-9198722679987443656","display":"Quartet Community Foundation","shortDisplay":"qcfmayorsfund","address":{"addressLine1":"Royal Oak House","addressLine2":"Royal Oak Avenue","zip":"BS1 4GB","location":{"latitude":51.449812,"longitude":-2.596578}}},{"id":"-263581019284379586","display":"Quilliam Brothers","shortDisplay":"quilliambrothers","address":{"addressLine1":"1, Eldon Place","addressLine2":"Claremont Buildings","zip":"NE1 7RD","location":{"latitude":54.975034,"longitude":-1.615061}}},{"id":"-8766377115759876040","display":"Quirky Campers","shortDisplay":"quirkycampers","address":{"addressLine1":"Juniper House","addressLine2":"139 Colston Road","zip":"BS5 6AB","location":{"latitude":51.464312,"longitude":-2.557772}}},{"id":"-8910492303835731912","display":"Radford Mill Farm Shop","shortDisplay":"radfordmill","address":{"addressLine1":"39-41 Picton Street","addressLine2":"Montpelier","zip":"BS6 5PZ","location":{"latitude":51.46539,"longitude":-2.588503}}},{"id":"-8478146739608164296","display":"Rag and Bone","shortDisplay":"bone","address":{"addressLine1":"17 Chandos Road","addressLine2":"Bristol","zip":"BS6 6PG","location":{"latitude":51.467763,"longitude":-2.606221}}},{"id":"-8622261927684020168","display":"Ranzo Cycles","shortDisplay":"ranzo","address":{"addressLine1":"Raleigh Road","addressLine2":"Bristol","zip":"BS3 1TF","location":{"latitude":51.442347,"longitude":-2.613133}}},{"id":"-8189916363456452552","display":"Real Economy Co-Operative Ltd","shortDisplay":"realeconomy","address":{"addressLine1":"Corn Exchange","addressLine2":"Corn Street","zip":"BS1 1JQ","location":{"latitude":51.454335,"longitude":-2.593402}}},{"id":"-8334031551532308424","display":"Really Useful Bikes","shortDisplay":"reallyusefulbikes","address":{"addressLine1":"The Dairy at Rodford Elm Cottage","addressLine2":"The Westerleigh Road","zip":"BS37 8QF","location":{"latitude":51.525791,"longitude":-2.43512}}},{"id":"-7901685987304740808","display":"Red Beard Burrito","shortDisplay":"redbeardburrtio","address":{"addressLine1":"8 Sefton Park Road","addressLine2":"Bristol","zip":"BS7 9AJ","location":{"latitude":51.474169,"longitude":-2.585162}}},{"id":"-8045801175380596680","display":"Red Flower Barrow","shortDisplay":"redbarrow","address":{"addressLine1":"184 Church Road","addressLine2":"Bristol","zip":"BS5 9HX","location":{"latitude":51.459632,"longitude":-2.551373}}},{"id":"-7613455611153029064","display":"Reg the Veg","shortDisplay":"regtheveg","address":{"addressLine1":"6 Boyces Avenue","addressLine2":"Bristol","zip":"BS8 4AA","location":{"latitude":51.455185,"longitude":-2.618154}}},{"id":"-7757570799228884936","display":"RH Small Business Support","shortDisplay":"rhsbs","address":{"addressLine1":"The Greenway Centre,","addressLine2":"Doncaster Road,","zip":"BS10 5PY","location":{"latitude":51.500079,"longitude":-2.608024}}},{"id":"-7325225235001317320","display":"Rio Wild","shortDisplay":"riowild","address":{"addressLine1":"15 West Street","addressLine2":"Bristol","zip":"BS2 0DF","location":{"latitude":51.456618,"longitude":-2.579387}}},{"id":"-7469340423077173192","display":"Robot Dinosaur","shortDisplay":"robotdinosaur","address":{"addressLine1":"Bristol","zip":"BS3","location":{"latitude":51.438946,"longitude":-2.600472}}},{"id":"-7036994858849605576","display":"Room 212","shortDisplay":"room212","address":{"addressLine1":"212 Gloucester Road","addressLine2":"Bristol","zip":"BS7 8NU","location":{"latitude":51.479021,"longitude":-2.589683}}},{"id":"-7181110046925461448","display":"Rounceval House Hotel","shortDisplay":"rounceval","address":{"addressLine1":"Rounceval House Hotel","addressLine2":"Rounceval Street","zip":"BS37 6AR","location":{"latitude":51.537935,"longitude":-2.397979}}},{"id":"7086293572584269880","display":"Rowswell's Farm","shortDisplay":"growswell"},{"id":"6942178384508414008","display":"Royal West of England Academy","shortDisplay":"rwa1","address":{"addressLine1":"Queen's Road","addressLine2":"Clifton","zip":"BS8 1PX","location":{"latitude":51.457791,"longitude":-2.609112}}},{"id":"7374523948735981624","display":"Royce Rolls Cafe","shortDisplay":"roycerolls","address":{"addressLine1":"St Nicholas Market","addressLine2":"Bristol","zip":"BS1 1JQ","location":{"latitude":51.454617,"longitude":-2.592806}}},{"id":"7230408760660125752","display":"Rumba Graphic Design Ltd","shortDisplay":"rumba","address":{"addressLine1":"2nd Floor","addressLine2":"24 Park Street","zip":"BS1 5JA","location":{"latitude":51.453818,"longitude":-2.601858}}},{"id":"7662754324887693368","display":"Runstrechtrain","shortDisplay":"elle","address":{"addressLine1":"1 Durnford Street","addressLine2":"Bristol","zip":"BS3 2AW","location":{"latitude":51.442017,"longitude":-2.616487}}},{"id":"7518639136811837496","display":"Ryan Builds Wheels","shortDisplay":"ryanbuildswheels","address":{"addressLine1":"15 Monk Road","addressLine2":"Bishopston","zip":"BS7 8LE","location":{"latitude":51.478531,"longitude":-2.595005}}},{"id":"-1272387335815370690","display":"saber king","shortDisplay":"saberking"},{"id":"7950984701039405112","display":"Sam Bloomfield","shortDisplay":"sambloomfield","address":{"addressLine1":"St Weburghs","addressLine2":"Bristol","zip":"BS2","location":{"latitude":51.470946,"longitude":-2.577546}}},{"id":"7806869512963549240","display":"Sarah Latham Massage","shortDisplay":"massagesl","address":{"zip":"BS15 4AN","location":{"latitude":51.461549,"longitude":-2.497641}}},{"id":"8239215077191116856","display":"Sarah's Barbering","shortDisplay":"villiers","address":{"addressLine1":"Greenbank","addressLine2":"Easton","zip":"BS5","location":{"latitude":51.462919,"longitude":-2.57101}}},{"id":"8095099889115260984","display":"Scoff And Relish","shortDisplay":"scoffandrelish","address":{"addressLine1":"77 Richmond Road","addressLine2":"Montpelier","zip":"BS5 6EH","location":{"latitude":51.467981,"longitude":-2.585968}}},{"id":"8527445453342828600","display":"Scoopaway Health Foods","shortDisplay":"scoops","address":{"addressLine1":"113 Gloucester Road","addressLine2":"Bishopston","zip":"BS7 8AT","location":{"latitude":51.47307,"longitude":-2.590907}}},{"id":"2042261989929314367","display":"Scott Logic Bristol","shortDisplay":"slogic","image":{"url":"https://bristol.cyclos.org/bristolpoundsandbox03/api/images/profile/AfwVH2FXOt5rVgvoWxlHU3rSvgZliV5Rc32fiRMispkmzYXIN8EFYvJT9PrlCTiJ_300x300.png"},"address":{"addressLine1":"25 King Street","zip":"BS1 4PB","location":{"latitude":51.45191,"longitude":-2.596069}}},{"id":"-1128272147739514818","display":"Scott Logic Edinburgh","shortDisplay":"slogic_edin","image":{"url":"https://bristol.cyclos.org/bristolpoundsandbox03/api/images/profile/IhXv5ukFdpnJwFESQgRfPzW9x1EdRXlOYgCRE2Ap3W85NYqulFQhW74OvQ8QKfwz_200x113.png"},"address":{"addressLine1":"80 George St","zip":"EH2 3BU","location":{"latitude":55.949218,"longitude":-3.19254}}},{"id":"-407696207360235458","display":"Scott Logic NewCastle","shortDisplay":"scottlogicnewcastle","address":{"addressLine1":"3rd Floor, 1 St James’ Gate","zip":"NE1 4AD","location":{"latitude":54.966403,"longitude":-1.622422}}},{"id":"8383330265266972728","display":"SECURIST","shortDisplay":"securist","address":{"addressLine1":"7 Kennard Road","addressLine2":"Kingswood","zip":"BS15 8AA","location":{"latitude":51.462203,"longitude":-2.518056}}},{"id":"1609916425701746751","display":"Seda Bulut","shortDisplay":"sbulut","image":{"url":"https://bristol.cyclos.org/bristolpoundsandbox03/api/images/profile/dlltxlqmMjtEfwJqYnSoTM41RH3SOJdN1Da0EMyWHkjmD4JkffbEeQMbcB82iCmt_500x375.png"}},{"id":"8815675829494540344","display":"Shake, Wrap and Roll","shortDisplay":"swar","address":{"addressLine1":"243 Cheltenham Rd","addressLine2":"Bristol","zip":"BS6 5QU","location":{"latitude":51.470192,"longitude":-2.593926}}},{"id":"8671560641418684472","display":"Shift Bristol CIC","shortDisplay":"shiftbristol","address":{"addressLine1":"St Werburghs Community Centre","addressLine2":"Horley Rd","zip":"BS2 9TJ","location":{"latitude":51.468005,"longitude":-2.572917}}},{"id":"9103906205646252088","display":"Shift Food Collective","shortDisplay":"shiftyfood","address":{"addressLine1":"55 Park Avenue","addressLine2":"Frampton Cotterell","zip":"BS36 2EY","location":{"latitude":51.527801,"longitude":-2.483619}}},{"id":"8959791017570396216","display":"Ship Shape Computers","shortDisplay":"shipshape","address":{"addressLine1":"42 Mansfield Street","addressLine2":"Bedminster","zip":"BS3 5PR","location":{"latitude":51.433237,"longitude":-2.604998}}},{"id":"4780450563370575928","display":"Shoots And Greens","shortDisplay":"shoots","address":{"addressLine1":"Moor Road Nursery","addressLine2":"Moor Road","zip":"BS29 6ET","location":{"latitude":51.341606,"longitude":-2.869506}}},{"id":"4636335375294720056","display":"Shopstogether.com","shortDisplay":"shopstogether","address":{"addressLine1":"143 Gloucester Road","addressLine2":"Bristol","zip":"BS7 8BA","location":{"latitude":51.473739,"longitude":-2.591388}}},{"id":"5068680939522287672","display":"Simon Ellis","shortDisplay":"simonellis","address":{"addressLine1":"Corn Street","zip":"BS1 1JQ","location":{"latitude":51.454497,"longitude":-2.59412}}},{"id":"4924565751446431800","display":"Simon Tozer","shortDisplay":"simontozer","address":{"addressLine1":"Studio 4 Centre Space","addressLine2":"6 Leonard Lane","zip":"BS1 1EA","location":{"latitude":51.454531,"longitude":-2.595581}}},{"id":"5356911315673999416","display":"Sims Hill Shared Harvest","shortDisplay":"shsh","address":{"addressLine1":"off Stoke Lane, next to M32","addressLine2":"Bristol","zip":"BS16 1HB","location":{"latitude":51.496072,"longitude":-2.535352}}},{"id":"5212796127598143544","display":"Small Street Espresso","shortDisplay":"smallstreet","address":{"addressLine1":"23 Small Street","addressLine2":"Bristol","zip":"BS1 1DW","location":{"latitude":51.454871,"longitude":-2.594308}}},{"id":"5645141691825711160","display":"Snack in the Mouth","shortDisplay":"bacon","address":{"addressLine1":"Eagleswood","addressLine2":"Bradley Stoke","zip":"BS32 4EU","location":{"latitude":51.546623,"longitude":-2.556096}}},{"id":"5501026503749855288","display":"Social Response Digital Marketing","shortDisplay":"socialresponse","address":{"addressLine1":"4 Berkeley Square","addressLine2":"Clifton","zip":"BS8 1HJ","location":{"latitude":51.454771,"longitude":-2.606105}}},{"id":"5933372067977422904","display":"Sockmonkey Consulting","shortDisplay":"sockmc"},{"id":"5789256879901567032","display":"Solarsense UK Ltd","shortDisplay":"solarsense","address":{"addressLine1":"Solarsense UK Ltd","addressLine2":"Helios House","zip":"BS48 4AH","location":{"latitude":51.404222,"longitude":-2.764836}}},{"id":"6221602444129134648","display":"Somerset Local Food Direct","shortDisplay":"localfooddirect","address":{"addressLine1":"1 Thomas Way","addressLine2":"Glastonbury","zip":"BA6 9LU","location":{"latitude":51.147139,"longitude":-2.730631}}},{"id":"6077487256053278776","display":"Souk Kitchen","shortDisplay":"souk","address":{"addressLine1":"277 North Street","addressLine2":"Bedminster","zip":"BS3 1JP","location":{"latitude":51.44211,"longitude":-2.613719}}},{"id":"6509832820280846392","display":"Sourdough Cafe","shortDisplay":"sourdoughcafe","address":{"addressLine1":"St Nick's Indoor Market","addressLine2":"Bristol","zip":"BS1 1JL","location":{"latitude":51.454541,"longitude":-2.593056}}},{"id":"6798063196432558136","display":"Southmead Development Trust","shortDisplay":"greenwaycentre","address":{"addressLine1":"The Greenway Centre","addressLine2":"Doncaster Road","zip":"BS10 5PY","location":{"latitude":51.500079,"longitude":-2.608024}}},{"id":"6653948008356702264","display":"Southpoint","shortDisplay":"southpoint","address":{"addressLine1":"45 The Dell","addressLine2":"Westbury-on-Trym","zip":"BS9 3UF","location":{"latitude":51.485511,"longitude":-2.622949}}},{"id":"2474607554156881976","display":"Southville Centre","shortDisplay":"southvillecentre","address":{"addressLine1":"Beauley Road","addressLine2":"Southville","zip":"BS3 1QG","location":{"latitude":51.444154,"longitude":-2.605756}}},{"id":"2330492366081026104","display":"Southville Deli","shortDisplay":"sdeli","address":{"addressLine1":"262 North Street","addressLine2":"Bedminster","zip":"BS3 1JA","location":{"latitude":51.441708,"longitude":-2.612516}}},{"id":"6365717632204990520","display":"South West Upholstery","shortDisplay":"swupholstery","address":{"addressLine1":"196 North Street","addressLine2":"Bedminster","zip":"BS3 1JF","location":{"latitude":51.440452,"longitude":-2.610094}}},{"id":"2762837930308593720","display":"Spice Up Your Life","shortDisplay":"spiceup","address":{"addressLine1":"St Nicholas Market","addressLine2":"Bristol","zip":"BS1 1HQ","location":{"latitude":51.454617,"longitude":-2.592806}}},{"id":"2618722742232737848","display":"Spike Island Cafe","shortDisplay":"spike1","address":{"addressLine1":"133 Cumberland Road","addressLine2":"Bristol","zip":"BS1 6UX","location":{"latitude":51.446848,"longitude":-2.609459}}},{"id":"3195183494536161336","display":"Steak of the Art","shortDisplay":"sota","address":{"addressLine1":"Cathedral Walk","addressLine2":"Bristol","zip":"BS1 5LN","location":{"latitude":51.449522,"longitude":-2.602946}}},{"id":"3627529058763728952","display":"Stewart Wines Ltd","shortDisplay":"stewart","address":{"addressLine1":"2 Cala Trading Estate","addressLine2":"Ashton Vale Road","zip":"BS3 2HA","location":{"latitude":51.438193,"longitude":-2.624662}}},{"id":"3483413870687873080","display":"Stick In Mind","shortDisplay":"stickinmind","address":{"zip":"BS3 1PT","location":{"latitude":51.445588,"longitude":-2.604868}}},{"id":"3915759434915440696","display":"Still Motion Design Ltd","shortDisplay":"stillmotion","address":{"addressLine1":"Studio 22, The Old Schoolhouse","addressLine2":"Salisbury Street","zip":"BS5 9UD","location":{"latitude":51.452497,"longitude":-2.564606}}},{"id":"3771644246839584824","display":"Stock Exchange Bakery","shortDisplay":"stock","address":{"addressLine1":"34 St Nicholas Street","addressLine2":"Bristol","zip":"BS1 1TG","location":{"latitude":51.453833,"longitude":-2.594469}}},{"id":"3051068306460305464","display":"St Pauls Real Economy","shortDisplay":"stpauls","address":{"addressLine1":"Flat 5","addressLine2":"91 Ashley Road","zip":"BS6 5NR","location":{"latitude":51.465295,"longitude":-2.584935}}},{"id":"4203989811067152440","display":"Stream Farm","shortDisplay":"streamfarm","address":{"addressLine1":"Broomfield","addressLine2":"Bridgwater","zip":"TA5 2EN","location":{"latitude":51.085831,"longitude":-3.088723}}},{"id":"4059874622991296568","display":"Studio 7 Music Repairs","shortDisplay":"studio7","address":{"zip":"BS1 1EA","location":{"latitude":51.454629,"longitude":-2.595316}}},{"id":"4492220187218864184","display":"Studio Baum","shortDisplay":"studiobaum","address":{"addressLine1":"Studio Baum","addressLine2":"The Wool Hall","zip":"BS1 6JJ","location":{"latitude":51.45223,"longitude":-2.589414}}},{"id":"4348104999143008312","display":"Studio Yaqub Limited","shortDisplay":"studioyaqub","address":{"zip":"BS5 6DX","location":{"latitude":51.467804,"longitude":-2.56396}}},{"id":"2906953118384449592","display":"St Werburghs City Farm","shortDisplay":"swcf","address":{"addressLine1":"St Werburghs City Farm","addressLine2":"Watercress Rd","zip":"BS2 9YJ","location":{"latitude":51.474108,"longitude":-2.578523}}},{"id":"3339298682612017208","display":"St. Werburgh's City Farm Cafe","shortDisplay":"stwcfc","address":{"addressLine1":"Watercress Road","addressLine2":"St. Werburghs","zip":"BS2 9YJ","location":{"latitude":51.474108,"longitude":-2.578523}}},{"id":"168764544943188024","display":"Susie Ramsay Art","shortDisplay":"susieramsay","address":{"zip":"BS8 4LE","location":{"latitude":51.453049,"longitude":-2.624151}}},{"id":"24649356867332152","display":"Sweetmart","shortDisplay":"sweetmart","address":{"addressLine1":"71-75","addressLine2":"76-82","zip":"BS5 6JH","location":{"latitude":51.46792,"longitude":-2.56434}}},{"id":"456994921094899768","display":"Synertree Ltd","shortDisplay":"synertree","address":{"addressLine1":"43 Woodborough Street","addressLine2":"Easton","zip":"BS5 0JA","location":{"latitude":51.464976,"longitude":-2.567804}}},{"id":"745225297246611512","display":"Tangent Books","shortDisplay":"tangent","address":{"addressLine1":"Unit 5.16","addressLine2":"Paintworks","zip":"BS4 3EH","location":{"latitude":51.44331,"longitude":-2.567962}}},{"id":"601110109170755640","display":"Taylor Brothers Bristol Ltd","shortDisplay":"taylorbros","address":{"addressLine1":"13-25 Wilder Street","addressLine2":"Bristol","zip":"BS2 8PY","location":{"latitude":51.461088,"longitude":-2.589254}}},{"id":"312879733019043896","display":"T Bar Animation","shortDisplay":"ruthwhiter","address":{"addressLine1":"19 Elvaston Road","addressLine2":"Bristol","zip":"BS3 4QJ","location":{"latitude":51.438509,"longitude":-2.589534}}},{"id":"1033455673398323256","display":"TDR Productions Ltd","shortDisplay":"lstd","address":{"addressLine1":"Hamilton House","addressLine2":"80 Stokes Croft","zip":"BS1 3QY","location":{"latitude":51.462862,"longitude":-2.589353}}},{"id":"889340485322467384","display":"Temple Cycles","shortDisplay":"templecycles","address":{"addressLine1":"32 Oakfield Road","addressLine2":"Bristol","zip":"BS8 2AT","location":{"latitude":51.460596,"longitude":-2.61216}}},{"id":"1321686049550035000","display":"Temple Homes Property Ltd","shortDisplay":"templehomes","address":{"zip":"BS1 3RD","location":{"latitude":51.463188,"longitude":-2.590087}}},{"id":"1754031613777602623","display":"Test Five","shortDisplay":"test5"},{"id":"1898146801853458495","display":"Test Fouro","shortDisplay":"test4"},{"id":"-8478146739608164293","display":"Test One","shortDisplay":"test1"},{"id":"2186377178005170239","display":"Test Sixx","shortDisplay":"test6","image":{"url":"https://bristol.cyclos.org/bristolpoundsandbox03/api/images/profile/iXZba1R7hhvRcqS9iJE1bfQ3mXaUfdBvjbCxCpCYijypVIFfqo3iPUtN2mgNTpLk_200x200.png"},"address":{"addressLine1":"Corn Street","zip":"BS1 1JQ","location":{"latitude":51.454404,"longitude":-2.593529}}},{"id":"1465801237625890879","display":"Test Test","shortDisplay":"test0"},{"id":"-8189916363456452549","display":"Test Three","shortDisplay":"test3"},{"id":"-8622261927684020165","display":"Test Two","shortDisplay":"test2","address":{"addressLine1":"Bristol Pound St","addressLine2":"No: 7","zip":"BS15YU","location":{"latitude":51.467604,"longitude":-2.490928}}},{"id":"1609916425701746744","display":"The Annexe Inn","shortDisplay":"annexe","address":{"addressLine1":"Seymour Road","addressLine2":"Bristol","zip":"BS7 9EQ","location":{"latitude":51.479258,"longitude":-2.586397}}},{"id":"1465801237625890872","display":"The Arts House","shortDisplay":"theartshouse","address":{"addressLine1":"108A Stokes Croft","addressLine2":"Bristol","zip":"BS1 3RU","location":{"latitude":51.464055,"longitude":-2.589513}}},{"id":"6942178384508414015","display":"Theatre Bristol","shortDisplay":"theatrebristol","address":{"addressLine1":"The Fire Station","addressLine2":"82-84 York Road","zip":"BS3 4AL","location":{"latitude":51.444709,"longitude":-2.58864}}},{"id":"1898146801853458488","display":"The Atrium Cafe at Arnos Vale Cemetery (Whisk!)","shortDisplay":"acav","address":{"addressLine1":"Bath Road","addressLine2":"Bristol","zip":"BS4 3EW","location":{"latitude":51.442535,"longitude":-2.564368}}},{"id":"1754031613777602616","display":"The Bag Of Nails","shortDisplay":"bofn","address":{"addressLine1":"141 St Georges Road","addressLine2":"Bristol","zip":"BS1 5UW","location":{"latitude":51.450936,"longitude":-2.607126}}},{"id":"2186377178005170232","display":"The Bank Tavern","shortDisplay":"bank","address":{"addressLine1":"8 John Street","addressLine2":"Bristol","zip":"BS1 2HR","location":{"latitude":51.455929,"longitude":-2.593905}}},{"id":"2042261989929314360","display":"The Better Food Company Big Shop and Cafe (Sevier Street, St. Werburgh's)","shortDisplay":"betterstwerbs","address":{"addressLine1":"Sevier St","addressLine2":"St Werburghs","zip":"BS2 9QS","location":{"latitude":51.468533,"longitude":-2.578438}}},{"id":"-2137078464270505921","display":"The Better Food Company Food Hall & Deli (Whiteladies Road)","shortDisplay":"betterclifton","address":{"addressLine1":"94 Whiteladies Rd","addressLine2":"Bristol","zip":"BS8 2QX","location":{"latitude":51.466848,"longitude":-2.612216}}},{"id":"-2281193652346361793","display":"The Big Act Ltd","shortDisplay":"thebigact","address":{"addressLine1":"14-16 Wilson Place","addressLine2":"Bristol","zip":"BS2 9HJ","location":{"latitude":51.461659,"longitude":-2.581537}}},{"id":"-1848848088118794177","display":"The Big O Donut Co","shortDisplay":"bigo","address":{"zip":"BS5 9AP","location":{"latitude":51.463511,"longitude":-2.553414}}},{"id":"-1992963276194650049","display":"The Bristol Bike Project","shortDisplay":"bristolbikeproject","address":{"addressLine1":"Hamilton House","addressLine2":"80 Stokes Croft","zip":"BS1 3QY","location":{"latitude":51.462862,"longitude":-2.589353}}},{"id":"-1560617711967082433","display":"The Bristol Cheesemonger","shortDisplay":"bristolcheese","address":{"zip":"BS6","location":{"latitude":51.467857,"longitude":-2.600082}}},{"id":"-1416502523891226561","display":"The Bristolian Cafe","shortDisplay":"bristolian","address":{"addressLine1":"2 Picton Street","addressLine2":"Bristol","zip":"BS6 5QA","location":{"latitude":51.464861,"longitude":-2.589148}}},{"id":"-1704732900042938305","display":"The Bristol Pest Controller","shortDisplay":"bristolpest","address":{"addressLine1":"84 Robertson Road","addressLine2":"Easton","zip":"BS5 6JW","location":{"latitude":51.469164,"longitude":-2.558923}}},{"id":"-1272387335815370689","display":"The Bristol Shop","shortDisplay":"thebristolshop","address":{"addressLine1":"The Old Chapel","addressLine2":"Fairview Drive","zip":"BS6 6PH","location":{"latitude":51.468708,"longitude":-2.602741}}},{"id":"-984156959663658945","display":"The Burger Joint (Southville)","shortDisplay":"burgerjoint2","address":{"addressLine1":"230 North Street","addressLine2":"Southville","zip":"BS3 1JD","location":{"latitude":51.441042,"longitude":-2.611403}}},{"id":"-695926583511947201","display":"The Burger Joint (Whiteladies)","shortDisplay":"burgerjoint","address":{"addressLine1":"83 Whiteladies Road","addressLine2":"Bristol","zip":"BS8 2NT","location":{"latitude":51.463272,"longitude":-2.608769}}},{"id":"-840041771587803073","display":"The Chiropractic Centre","shortDisplay":"happynerves","address":{"addressLine1":"33 Alma Road","addressLine2":"Clifton","zip":"BS8 2HL","location":{"latitude":51.462187,"longitude":-2.613015}}},{"id":"-407696207360235457","display":"The Chrysalis","shortDisplay":"chrysalis","address":{"addressLine1":"Moravian Road","addressLine2":"Kingswood","zip":"BS15 8LY","location":{"latitude":51.462084,"longitude":-2.508253}}},{"id":"-551811395436091329","display":"The City Of Bristol College","shortDisplay":"finedine","address":{"addressLine1":"SBSA The Boulevard","addressLine2":"Hengrove Park","zip":"BS14 0DB","location":{"latitude":51.410629,"longitude":-2.588979}}},{"id":"-119465831208523713","display":"The Community Farm","shortDisplay":"commfarm","address":{"addressLine1":"The Community Farm","addressLine2":"Denny Lane","zip":"BS40 8SZ","location":{"latitude":51.355858,"longitude":-2.612201}}},{"id":"-4587036661560055746","display":"The Cycle Hub","shortDisplay":"thecyclehub","address":{"addressLine1":"The Cycle Hub, Quayside","zip":"NE6 1BU","location":{"latitude":54.968517,"longitude":-1.583301}}},{"id":"-4442921473484199874","display":"The Denton","shortDisplay":"thedenton","address":{"addressLine1":"West Road","zip":"NE5 2JJ","location":{"latitude":54.982487,"longitude":-1.684128}}},{"id":"-263581019284379585","display":"The Devilled Egg Kitchen Academy","shortDisplay":"tdeka","address":{"addressLine1":"Latchford House","addressLine2":"8 Downfield Road","zip":"BS8 2TH","location":{"latitude":51.46747,"longitude":-2.617368}}},{"id":"-4442921473484199873","display":"The Electric Lemon","shortDisplay":"drinkme","address":{"addressLine1":"Montpelier","addressLine2":"Bristol","zip":"BS6","location":{"latitude":51.466851,"longitude":-2.586107}}},{"id":"-4587036661560055745","display":"The Famous Royal Navy Volunteer","shortDisplay":"TFRNV","address":{"addressLine1":"17-18 King Street","addressLine2":"Old City","zip":"BS1 4EF","location":{"latitude":51.514864,"longitude":-0.092182}}},{"id":"-4154691097332488129","display":"The Feastie Boys","shortDisplay":"thefeastieboys","address":{"zip":"BS2 9AN","location":{"latitude":51.467474,"longitude":-2.579979}}},{"id":"-4298806285408344001","display":"The Flower Growers","shortDisplay":"flower","address":{"addressLine1":"8 Gray Close","addressLine2":"Henbury","zip":"BS10 7SZ","location":{"latitude":51.507236,"longitude":-2.633565}}},{"id":"-3866460721180776385","display":"The Flowerman","shortDisplay":"flowerman","address":{"addressLine1":"St. James Arcade","addressLine2":"Bristol","zip":"BS1 3JA","location":{"latitude":51.459185,"longitude":-2.590482}}},{"id":"-4010575909256632257","display":"The Full Moon & Attic Bar","shortDisplay":"fullmoon","address":{"addressLine1":"The Full Moon and Attic Bar","addressLine2":"Stokes Croft","zip":"BS1 3PR","location":{"latitude":51.461019,"longitude":-2.590549}}},{"id":"-3578230345029064641","display":"The Gallimaufry","shortDisplay":"galli","address":{"addressLine1":"26 The Promenade","addressLine2":"Gloucester Road","zip":"BS7 8AL","location":{"latitude":51.4717,"longitude":-2.592674}}},{"id":"-3722345533104920513","display":"The Garlic Farm Field Kitchen","shortDisplay":"garlicfarm","address":{"addressLine1":"Bedminster","addressLine2":"Bristol","zip":"BS3 1JF","location":{"latitude":51.440519,"longitude":-2.609779}}},{"id":"-3289999968877352897","display":"The Goods Yard / Inside Out Adventures","shortDisplay":"goodsyard","address":{"addressLine1":"Creative Common","addressLine2":"Bristol","zip":"BS1 6DG","location":{"latitude":51.450721,"longitude":-2.582069}}},{"id":"-3001769592725641153","display":"The Greenhouse B&B","shortDisplay":"greenhouse","address":{"addressLine1":"61 Greenbank Road","addressLine2":"Southville","zip":"BS3 1RJ","location":{"latitude":51.445102,"longitude":-2.61419}}},{"id":"-3434115156953208769","display":"The Green Man","shortDisplay":"gman","address":{"addressLine1":"21 Alfred Place","addressLine2":"Kingsdown","zip":"BS2 8HD","location":{"latitude":51.46109,"longitude":-2.598828}}},{"id":"-3145884780801497025","display":"The Group of Seven (Shipshape Magazine)","shortDisplay":"groupofseven","address":{"addressLine1":"Create Centre","addressLine2":"B Bond Warehouse","zip":"BS1 6XN","location":{"latitude":51.447209,"longitude":-2.621891}}},{"id":"-2713539216573929409","display":"The Happy Fish Co.","shortDisplay":"happyfish","address":{"addressLine1":"16 Canford Lane","addressLine2":"Bristol","zip":"BS9 3DH","location":{"latitude":51.492886,"longitude":-2.619869}}},{"id":"-2857654404649785281","display":"The Language Store","shortDisplay":"languagestore","address":{"addressLine1":"Easton","zip":"BS5","location":{"latitude":51.465403,"longitude":-2.564675}}},{"id":"-2425308840422217665","display":"The Lazy Dog","shortDisplay":"lazy","address":{"addressLine1":"112 Ashley Down Rd","addressLine2":"Ashley Down","zip":"BS7 9JR","location":{"latitude":51.481368,"longitude":-2.582908}}},{"id":"-2569424028498073537","display":"The Letterpress Collective","shortDisplay":"letterpress","address":{"addressLine1":"Unit 31 Centrespace","addressLine2":"6 Leonard Lane","zip":"BS1 1EA","location":{"latitude":51.454531,"longitude":-2.595581}}},{"id":"-6748764482697893825","display":"The Library Bar","shortDisplay":"library","address":{"addressLine1":"208 Cheltenham Road","addressLine2":"Bristol","zip":"BS6 5QU","location":{"latitude":51.469182,"longitude":-2.592971}}},{"id":"-6892879670773749697","display":"The Lido Bristol","shortDisplay":"lido","address":{"addressLine1":"Oakfield Place  Clifton","addressLine2":"Bristol","zip":"BS8 2BJ","location":{"latitude":51.459634,"longitude":-2.610924}}},{"id":"-6460534106546182081","display":"the little taqueria","shortDisplay":"littletaqueria","address":{"zip":"BS6 6AS","location":{"latitude":51.467263,"longitude":-2.595092}}},{"id":"-6604649294622037953","display":"The Looking Glass","shortDisplay":"lglass","address":{"addressLine1":"The Looking Glass","addressLine2":"39-40 High Street","zip":"BS1 2AW","location":{"latitude":51.454559,"longitude":-2.592553}}},{"id":"-6172303730394470337","display":"The Market Kitchen","shortDisplay":"marketkitchen","address":{"addressLine1":"16 Rayens Cross Road","addressLine2":"Long Ashton","zip":"BS41 9DZ","location":{"latitude":51.429967,"longitude":-2.66605}}},{"id":"-119465831208523714","display":"The Old George","shortDisplay":"theoldgeorge","address":{"addressLine1":"Old George Inn","addressLine2":"Old George Yard","zip":"NE1 1EZ","location":{"latitude":54.971549,"longitude":-1.612548}}},{"id":"-6316418918470326209","display":"The Original Man With Van Removals Bristol","shortDisplay":"vanman","address":{"addressLine1":"34 Cobourg Road","addressLine2":"Montpelier","zip":"BS6 5HX","location":{"latitude":51.468224,"longitude":-2.58259}}},{"id":"-5884073354242758593","display":"The Pickled Brisket","shortDisplay":"brisket","address":{"zip":"BS4 2JJ","location":{"latitude":51.436314,"longitude":-2.56596}}},{"id":"-6028188542318614465","display":"The Pipe and Slippers","shortDisplay":"pipe","address":{"addressLine1":"The Pipe & Slippers 118 Cheltenham Road","addressLine2":"Bristol","zip":"BS6 5RW","location":{"latitude":51.464622,"longitude":-2.589656}}},{"id":"-5595842978091046849","display":"The Pumphouse","shortDisplay":"pump","address":{"addressLine1":"The Pump House","addressLine2":"Merchants Road","zip":"BS8 4PZ","location":{"latitude":51.4499,"longitude":-2.618409}}},{"id":"-5739958166166902721","display":"The Rummer Hotel","shortDisplay":"therummer","address":{"addressLine1":"The Rummer Hotel","addressLine2":"All Saints Lane","zip":"BS1 1JH","location":{"latitude":51.454236,"longitude":-2.592965}}},{"id":"-5307612601939335105","display":"The Runcible Spoon","shortDisplay":"bigspoon","address":{"addressLine1":"3 Ninetree Hill","addressLine2":"Stokes Croft","zip":"BS1 3SB","location":{"latitude":51.463885,"longitude":-2.589766}}},{"id":"-5451727790015190977","display":"The Salvation Army Bristol, Cheltenham Rd","shortDisplay":"salv110","address":{"addressLine1":"110 Cheltenham Road","zip":"BS6 5RW","location":{"latitude":51.464333,"longitude":-2.589615}}},{"id":"-5019382225787623361","display":"The Salvation Army Bristol, Lower Redland Rd","shortDisplay":"salv5","address":{"addressLine1":"5 Lower Redland Road","addressLine2":"Bristol","zip":"BS6 6TB","location":{"latitude":51.469053,"longitude":-2.613505}}},{"id":"-5163497413863479233","display":"The Severn Project CIC","shortDisplay":"severnproject","address":{"addressLine1":"Avon Mill Ln","addressLine2":"Keynsham","zip":"BS31 2AJ","location":{"latitude":51.41617,"longitude":-2.493631}}},{"id":"-4731151849635911617","display":"The SnM Group","shortDisplay":"snmgroup","address":{"addressLine1":"58 Kenmare Road","addressLine2":"Bristol","zip":"BS4 1PB","location":{"latitude":51.430214,"longitude":-2.587331}}},{"id":"-4875267037711767489","display":"The Social","shortDisplay":"social","address":{"addressLine1":"130 Cheltenham Road","addressLine2":"Bristol","zip":"BS6 5RW","location":{"latitude":51.464885,"longitude":-2.589888}}},{"id":"-9054607491911587777","display":"The Spokesman Bicycle Shop and Repairs Ltd.","shortDisplay":"thespokesman","address":{"addressLine1":"The Spokesman","addressLine2":"78 Mina Road","zip":"BS2 9XL","location":{"latitude":51.468937,"longitude":-2.57493}}},{"id":"-9198722679987443649","display":"The Sportsman","shortDisplay":"sportsman","address":{"addressLine1":"Nevil Road","addressLine2":"Bristol","zip":"BS7 9EQ","location":{"latitude":51.479828,"longitude":-2.587293}}},{"id":"-8766377115759876033","display":"The Spotless Leopard","shortDisplay":"spotlessleopard","address":{"addressLine1":"The corner of Alma Rd. & Whiteladies","addressLine2":"Bristol","zip":"BS8 2NH","location":{"latitude":51.463614,"longitude":-2.609288}}},{"id":"-8910492303835731905","display":"The Steam Crane","shortDisplay":"steamcrane","address":{"addressLine1":"4-6 North Street","addressLine2":"Bristol","zip":"BS3 1HT","location":{"latitude":51.441529,"longitude":-2.601914}}},{"id":"-8478146739608164289","display":"The Story Group","shortDisplay":"story","address":{"addressLine1":"Blagdon Butchers","addressLine2":"Blagdon","zip":"BS40 7TA","location":{"latitude":51.329061,"longitude":-2.718457}}},{"id":"-8622261927684020161","display":"The Tea Birds","shortDisplay":"teabirds","address":{"addressLine1":"20 Park Street","addressLine2":"Bristol","zip":"BS1 5JA","location":{"latitude":51.453734,"longitude":-2.601585}}},{"id":"-8189916363456452545","display":"The Thali Cafe (Clifton)","shortDisplay":"cliftonthali","address":{"addressLine1":"1 Regents Street","addressLine2":"Bristol","zip":"BS8 4HW","location":{"latitude":51.453693,"longitude":-2.618014}}},{"id":"-8334031551532308417","display":"The Thali Cafe (Easton)","shortDisplay":"eastonthali","address":{"addressLine1":"64-66 St. Marks Road","addressLine2":"Bristol","zip":"BS5 6JH","location":{"latitude":51.46773,"longitude":-2.564348}}},{"id":"-7901685987304740801","display":"The Thali Cafe (Montpelier)","shortDisplay":"montythali","address":{"addressLine1":"12 York Road","addressLine2":"Bristol","zip":"BS6 5QE","location":{"latitude":51.466285,"longitude":-2.587683}}},{"id":"-8045801175380596673","display":"The Thali Cafe (Southville)","shortDisplay":"southvillethali","address":{"addressLine1":"Tobacco Factory","addressLine2":"North Street","zip":"BS3 1TF","location":{"latitude":51.442392,"longitude":-2.613462}}},{"id":"-7613455611153029057","display":"The Thali Cafe (Totterdown)","shortDisplay":"tdownthali","address":{"addressLine1":"1 William Street","addressLine2":"Bristol","zip":"BS3 4TU","location":{"latitude":51.443603,"longitude":-2.579985}}},{"id":"-7757570799228884929","display":"The Three Crowns","shortDisplay":"3crowns","address":{"addressLine1":"Blackswarth Road","addressLine2":"Bristol","zip":"BS5 8AS","location":{"latitude":51.45701,"longitude":-2.551758}}},{"id":"-7325225235001317313","display":"The Three Tuns","shortDisplay":"3tuns","address":{"addressLine1":"78 Saint George's Road","addressLine2":"Hotwells","zip":"BS1 5UR","location":{"latitude":51.451152,"longitude":-2.604989}}},{"id":"-7469340423077173185","display":"The Volunteer Tavern","shortDisplay":"volta","address":{"addressLine1":"9 New St","addressLine2":"St Judes","zip":"BS2 9DX","location":{"latitude":51.457696,"longitude":-2.582183}}},{"id":"-7036994858849605569","display":"The White Bear","shortDisplay":"whitebear","address":{"addressLine1":"133 St Michael's Hill","addressLine2":"High Kingsdown","zip":"BS2 8BS","location":{"latitude":51.46168,"longitude":-2.600902}}},{"id":"-7181110046925461441","display":"The Windmill Pub","shortDisplay":"windy","address":{"addressLine1":"14 Windmill Hill","addressLine2":"Bedminster","zip":"BS3 4LU","location":{"latitude":51.439669,"longitude":-2.594479}}},{"id":"7086293572584269887","display":"The Window Shop (Lucas Antics)","shortDisplay":"alexandralucas","address":{"addressLine1":"49 Picton Street","addressLine2":"Montpelier","zip":"BS6 5PZ","location":{"latitude":51.466103,"longitude":-2.588074}}},{"id":"7374523948735981631","display":"Thinkable Digital","shortDisplay":"thinkable","address":{"addressLine1":"79-81 Newfoundland Circus","addressLine2":"Bristol","zip":"BS2 9AP","location":{"latitude":51.460581,"longitude":-2.582484}}},{"id":"7230408760660125759","display":"Towles Fine Ales","shortDisplay":"towles","address":{"addressLine1":"Unit 11","addressLine2":"Circuit 32","zip":"BS5 0DB","location":{"latitude":51.46066,"longitude":-2.56839}}},{"id":"7662754324887693375","display":"Treasure Island Sweets Ltd","shortDisplay":"tbss","address":{"addressLine1":"70 The Covered Market","addressLine2":"St Nicholas Street","zip":"BS1 1LJ","location":{"latitude":51.453841,"longitude":-2.59339}}},{"id":"7518639136811837503","display":"Trewhitts Food","shortDisplay":"trewhitts","address":{"addressLine1":"Rookham Cottage","addressLine2":"Dursdon Drove","zip":"BA5 3AW","location":{"latitude":51.236423,"longitude":-2.648763}}},{"id":"7950984701039405119","display":"Trinity Community Garden","shortDisplay":"trinitygarden","address":{"addressLine1":"Trinity Centre","addressLine2":"Trinity Road","zip":"BS2 0NW","location":{"latitude":51.458039,"longitude":-2.575911}}},{"id":"7806869512963549247","display":"Twig The Flower Shop","shortDisplay":"twig","address":{"addressLine1":"22 Elliston Road","addressLine2":"First Floor Flat","zip":"BS6 6QE","location":{"latitude":51.469192,"longitude":-2.604777}}},{"id":"8239215077191116863","display":"Twilight Fashions","shortDisplay":"frog","address":{"addressLine1":"Twilight Fashions","addressLine2":"St. Nicholas Market","zip":"BS1 1JQ","location":{"latitude":51.454497,"longitude":-2.59412}}},{"id":"8095099889115260991","display":"UK Milliner's Guild","shortDisplay":"anitownsend","address":{"addressLine1":"39 Alma Vale Road","addressLine2":"Clifton","zip":"BS8 2HL","location":{"latitude":51.462633,"longitude":-2.613868}}},{"id":"8527445453342828607","display":"Unicorn Office Products","shortDisplay":"unicorn662","address":{"addressLine1":"10-16 York Street","addressLine2":"St Werburghs","zip":"BS2 9XT","location":{"latitude":51.469908,"longitude":-2.576771}}},{"id":"8383330265266972735","display":"Union Jack Taxis Ltd","shortDisplay":"unionjacktaxis","address":{"addressLine1":"13 Whitson House","addressLine2":"St Judes","zip":"BS2 9ED","location":{"latitude":51.458821,"longitude":-2.580887}}},{"id":"8815675829494540351","display":"Upfest","shortDisplay":"upfest","address":{"addressLine1":"Upfest Gallery","addressLine2":"198 North Street","zip":"BS3 1JF","location":{"latitude":51.440471,"longitude":-2.610169}}},{"id":"8671560641418684479","display":"Urban Eden Designs","shortDisplay":"urbaneden","address":{"addressLine1":"40 West View Road","addressLine2":"Bristol","zip":"BS3 3JJ","location":{"latitude":51.436663,"longitude":-2.611023}}},{"id":"-2137078464270505922","display":"User WithNoTransactions","shortDisplay":"testUnk"},{"id":"9103906205646252095","display":"Vaguely Vintage","shortDisplay":"vaguelyvintage","address":{"addressLine1":"Tobacco Factory Retroville Market","zip":"BS3 1TF","location":{"latitude":51.44236,"longitude":-2.613487}}},{"id":"8959791017570396223","display":"VC Conferences Ltd","shortDisplay":"vassallcentre","address":{"addressLine1":"The Vassall Centre","addressLine2":"Gill Avenue","zip":"BS16 2QQ","location":{"latitude":51.485646,"longitude":-2.524749}}},{"id":"4780450563370575935","display":"Vee Double Moo","shortDisplay":"veedoublemoo","address":{"addressLine1":"76 Chessel Street","addressLine2":"Bedminster","zip":"BS3 3DN","location":{"latitude":51.43802,"longitude":-2.608873}}},{"id":"4636335375294720063","display":"Velopost","shortDisplay":"velopost","address":{"addressLine1":"St Peter's Park","addressLine2":"Wells Road","zip":"BA3 3UP","location":{"latitude":51.282692,"longitude":-2.467745}}},{"id":"5068680939522287679","display":"Veronica Pollard Alexander Technique","shortDisplay":"vpat","address":{"addressLine1":"Southville","zip":"BS3","location":{"latitude":51.444117,"longitude":-2.606211}}},{"id":"4924565751446431807","display":"Viridian Distribution Ltd","shortDisplay":"virdist","address":{"addressLine1":"Viridian House","addressLine2":"Glenarm Road","zip":"BS4 4LW","location":{"latitude":51.433356,"longitude":-2.544945}}},{"id":"5356911315673999423","display":"Viva La Mexicana Ltd","shortDisplay":"vivalamexicana","address":{"addressLine1":"149 East Street","addressLine2":"Bedminster","zip":"BS3 4EJ","location":{"latitude":51.440757,"longitude":-2.600753}}},{"id":"5212796127598143551","display":"Ward & Williams","shortDisplay":"wardandwilliams","address":{"addressLine1":"Narrow Quay","addressLine2":"Bristol","zip":"BS1","location":{"latitude":51.450153,"longitude":-2.597418}}},{"id":"5645141691825711167","display":"Waste Source Ltd","shortDisplay":"wastesource","address":{"addressLine1":"Loft 3","addressLine2":"Tobacco Factory","zip":"BS3 1TF","location":{"latitude":51.442347,"longitude":-2.613133}}},{"id":"5501026503749855295","display":"Watershed Box Office","shortDisplay":"wsfilm","address":{"addressLine1":"Watershed","addressLine2":"1 Canon’s Road","zip":"BS1 5TX","location":{"latitude":51.45162,"longitude":-2.598213}}},{"id":"5933372067977422911","display":"Watershed Cafe/Bar","shortDisplay":"wsbar","address":{"addressLine1":"Watershed","addressLine2":"1 Canon’s Road","zip":"BS1 5TX","location":{"latitude":51.45162,"longitude":-2.598213}}},{"id":"5789256879901567039","display":"Well Seasoned Wood","shortDisplay":"wswood"},{"id":"6221602444129134655","display":"Wernbrake Woodland","shortDisplay":"wernbrake","address":{"addressLine1":"Belvoir Road","addressLine2":"Bristol","zip":"BS6 5DJ","location":{"latitude":51.46928,"longitude":-2.589288}}},{"id":"6077487256053278783","display":"Wessex Kitchens","shortDisplay":"wessex","address":{"addressLine1":"3 York Street","addressLine2":"St. Werburghs","zip":"BS2 9XT","location":{"latitude":51.469626,"longitude":-2.576623}}},{"id":"6509832820280846399","display":"Whisk! Food Experiences Ltd","shortDisplay":"whiskbristol","address":{"addressLine1":"St. Nicholas House","addressLine2":"31-34 High Street","zip":"BS1 2AW","location":{"latitude":51.454617,"longitude":-2.592806}}},{"id":"6365717632204990527","display":"Whitehall Printing Co Avon ltd","shortDisplay":"whitehallprinting","address":{"addressLine1":"Peters Terrance Trading Estate","addressLine2":"Barton Hill","zip":"BS5 0BW","location":{"latitude":51.456375,"longitude":-2.568709}}},{"id":"6798063196432558143","display":"Whitestone Accounting","shortDisplay":"whitestone","address":{"addressLine1":"Whitestone Accounting Ltd","addressLine2":"Orchard Street Business Centre","zip":"BS1 5EH","location":{"latitude":51.453789,"longitude":-2.599493}}},{"id":"6653948008356702271","display":"Who587","shortDisplay":"who587","address":{"addressLine1":"17b Stackpool Road","addressLine2":"Bristol","zip":"BS3 1NG","location":{"latitude":51.444546,"longitude":-2.601145}}},{"id":"2474607554156881983","display":"Wild Grove Ltd","shortDisplay":"wildgrove","address":{"addressLine1":"20 Mackie Road","addressLine2":"Filton","zip":"BS34 7LY","location":{"latitude":51.508146,"longitude":-2.569317}}},{"id":"2330492366081026111","display":"Wild Oats","shortDisplay":"wildoats","address":{"addressLine1":"9-11 Lower Redland Road","addressLine2":"Bristol","zip":"BS6 6TB","location":{"latitude":51.469053,"longitude":-2.613505}}},{"id":"2762837930308593727","display":"Wild Stripes Base Layers","shortDisplay":"wildstripes","address":{"addressLine1":"101 Whitehall Road","addressLine2":"Bristol","zip":"BS5 9BG","location":{"latitude":51.461836,"longitude":-2.558984}}},{"id":"2618722742232737855","display":"Wilkinson & Partners","shortDisplay":"wilkpart","address":{"addressLine1":"The Old Schoolhouse","addressLine2":"75a Jacobs Wells Road","zip":"BS8 1DJ","location":{"latitude":51.454138,"longitude":-2.610234}}},{"id":"3051068306460305471","display":"Wine Taste Bristol","shortDisplay":"winetastebristol","address":{"addressLine1":"1 St Oswalds Court","addressLine2":"St Oswalds Road","zip":"BS6 7HX","location":{"latitude":51.473568,"longitude":-2.607149}}},{"id":"2906953118384449599","display":"Wiper and True","shortDisplay":"wiperandtrue","address":{"addressLine1":"Unit 1, York St","addressLine2":"St. Werburghs","zip":"BS2 9XT","location":{"latitude":51.469807,"longitude":-2.57679}}},{"id":"3339298682612017215","display":"Women In Sustainability Ltd","shortDisplay":"wins","address":{"addressLine1":"Flat 1","addressLine2":"228 Mina Road","zip":"BS2 9YP","location":{"latitude":51.474051,"longitude":-2.577086}}},{"id":"3195183494536161343","display":"Workhouse Cafe","shortDisplay":"workhouse","address":{"addressLine1":"19-20 Perry Road","addressLine2":"Christmas Steps","zip":"BS1 5BG","location":{"latitude":51.456721,"longitude":-2.59797}}},{"id":"3627529058763728959","display":"workshop 22","shortDisplay":"workshop22","address":{"addressLine1":"22 Upper Maudlin Street","addressLine2":"Bristol","zip":"BS2 8DJ","location":{"latitude":51.457562,"longitude":-2.596887}}},{"id":"4059874622991296575","display":"Xisto Wines","shortDisplay":"xistowines","address":{"zip":"BS7 8RQ","location":{"latitude":51.483983,"longitude":-2.590629}}},{"id":"4492220187218864191","display":"Yogawest","shortDisplay":"yogawest","address":{"addressLine1":"Denmark Place","addressLine2":"Bishopston","zip":"BS7 8NW","location":{"latitude":51.475801,"longitude":-2.590208}}},{"id":"4348104999143008319","display":"Yoho Media","shortDisplay":"yoho","address":{"addressLine1":"Yoho Media","addressLine2":"26 Berkeley Square","zip":"BS8 1HP","location":{"latitude":51.455386,"longitude":-2.605501}}},{"id":"168764544943188031","display":"Your Polish Translator","shortDisplay":"kasia","address":{"zip":"BS3 3LH","location":{"latitude":51.439071,"longitude":-2.602696}}},{"id":"24649356867332159","display":"Zara's Chocolates","shortDisplay":"zaraschocolates","address":{"addressLine1":"228 North Street","addressLine2":"Southville","zip":"BS3 1JD","location":{"latitude":51.441009,"longitude":-2.611349}}},{"id":"312879733019043903","display":"Zazu's Kitchen Bishopston","shortDisplay":"zazus225","address":{"addressLine1":"225 Gloucester Road","addressLine2":"Bishopston","zip":"BS7 8NR","location":{"latitude":51.476379,"longitude":-2.590148}}},{"id":"745225297246611519","display":"Zoe Hewett Interiors","shortDisplay":"zoehewettinteriors","address":{"addressLine1":"Horfield","addressLine2":"Bristol","zip":"BS7","location":{"latitude":51.489282,"longitude":-2.585055}}},{"id":"601110109170755647","display":"Zoomoffee","shortDisplay":"zoomoffee","address":{"zip":"BS31 3BG","location":{"latitude":51.402257,"longitude":-2.455869}}},{"id":"1033455673398323263","display":"Zzzone","shortDisplay":"zzzone","address":{"addressLine1":"23 Zetland Road","addressLine2":"Redland","zip":"BS6 7AH","location":{"latitude":51.46981,"longitude":-2.595035}}}]